{"type": "FeatureCollection", "features": [{"type": "Feature", "geometry": {"type": "LineString", "coordinates": [[-202.191, 61.859], [-204.38, 69.815], [-205.409, 70.906], [-229.823, 96.798], [-258.564, 127.568]]}, "properties": {"id": "curb_0", "height": 0.15, "low_side_kind": "drivable", "high_side_kind": "sidewalk", "layer": null}}, {"type": "Feature", "geometry": {"type": "LineString", "coordinates": [[-255.209, -1.718], [-237.855, 15.218], [-215.422, 38.447], [-201.791, 52.759], [-252.103, 106.546], [-249.694, 108.801], [-203.65, 59.601], [-202.181, 58.248], [-201.081, 57.516]]}, "properties": {"id": "curb_1", "height": 0.15, "low_side_kind": "drivable", "high_side_kind": "sidewalk", "layer": null}}, {"type": "Feature", "geometry": {"type": "LineString", "coordinates": [[-254.855, 189.667], [-242.822, 201.353], [-217.726, 226.167]]}, "properties": {"id": "curb_2", "height": 0.15, "low_side_kind": "drivable", "high_side_kind": "sidewalk", "layer": null}}, {"type": "Feature", "geometry": {"type": "LineString", "coordinates": [[-249.521, -132.597], [-227.838, -153.311], [-218.325, -143.686], [-219.818, -142.244], [-228.197, -134.153], [-252.294, -110.885]]}, "properties": {"id": "curb_3", "height": 0.15, "low_side_kind": "drivable", "high_side_kind": "sidewalk", "layer": null}}, {"type": "Feature", "geometry": {"type": "LineString", "coordinates": [[-214.418, 111.072], [-190.163, 85.347], [-187.331, 82.344], [-181.162, 75.666], [-178.303, 78.082], [-178.821, 79.514], [-179.286, 80.399], [-179.829, 81.239], [-181.019, 82.693], [-239.541, 145.371], [-252.176, 158.903]]}, "properties": {"id": "curb_4", "height": 0.15, "low_side_kind": "drivable", "high_side_kind": "sidewalk", "layer": null}}, {"type": "Feature", "geometry": {"type": "LineString", "coordinates": [[-249.618, 161.292], [-174.766, 81.136], [-162.133, 94.026], [-157.903, 98.224]]}, "properties": {"id": "curb_5", "height": 0.15, "low_side_kind": "drivable", "high_side_kind": "sidewalk", "layer": null}}, {"type": "Feature", "geometry": {"type": "LineString", "coordinates": [[-249.517, -108.008], [-216.976, -139.428], [-215.512, -140.841], [-200.663, -131.4], [-131.979, -62.368], [-131.893, -62.452], [-115.389, -45.991], [-114.044, -43.924], [-113.384, -42.643], [-113.262, -38.83], [-113.216, -37.399], [-113.78, -36.696], [-119.11, -31.081], [-123.299, -26.412], [-137.439, -11.19], [-138.675, -9.941], [-140.605, -8.272], [-142.011, -7.239], [-143.457, -6.311], [-146.665, -4.527], [-149.05, -2.946], [-151.278, -1.15], [-152.697, 0.189], [-190.295, 40.359], [-190.433, 40.218], [-191.164, 40.85], [-191.936, 41.19], [-192.906, 41.277], [-194.146, 41.075], [-195.558, 40.585], [-197.039, 39.864], [-198.536, 38.97], [-200.764, 37.399], [-204.382, 34.381], [-207.194, 31.741], [-209.959, 28.97], [-230.411, 7.811], [-247.876, -9.232]]}, "properties": {"id": "curb_6", "height": 0.15, "low_side_kind": "drivable", "high_side_kind": "sidewalk", "layer": null}}, {"type": "Feature", "geometry": {"type": "LineString", "coordinates": [[-210.015, 218.369], [-235.146, 193.52], [-247.215, 181.799]]}, "properties": {"id": "curb_7", "height": 0.15, "low_side_kind": "drivable", "high_side_kind": "sidewalk", "layer": null}}, {"type": "Feature", "geometry": {"type": "LineString", "coordinates": [[-160.635, -223.563], [-210.789, -175.371], [-215.816, -170.541], [-220.707, -173.799], [-220.708, -173.8], [-245.065, -198.127]]}, "properties": {"id": "curb_8", "height": 0.15, "low_side_kind": "drivable", "high_side_kind": "sidewalk", "layer": null}}, {"type": "Feature", "geometry": {"type": "LineString", "coordinates": [[-232.384, -162.141], [-232.887, -161.656], [-232.295, -160.973], [-231.768, -160.179], [-230.627, -156.333], [-230.789, -156.026], [-232.18, -154.697]]}, "properties": {"id": "curb_9", "height": 0.15, "low_side_kind": "drivable", "high_side_kind": "sidewalk", "layer": null}}, {"type": "Feature", "geometry": {"type": "LineString", "coordinates": [[-205.388, 216.551], [-206.028, 217.185], [-207.135, 218.338], [-208.5, 219.973]]}, "properties": {"id": "curb_10", "height": 0.15, "low_side_kind": "drivable", "high_side_kind": "sidewalk", "layer": null}}, {"type": "Feature", "geometry": {"type": "LineString", "coordinates": [[-203.434, 224.203], [-202.216, 222.744], [-200.73, 221.271]]}, "properties": {"id": "curb_11", "height": 0.15, "low_side_kind": "drivable", "high_side_kind": "sidewalk", "layer": null}}, {"type": "Feature", "geometry": {"type": "LineString", "coordinates": [[-182.135, 202.844], [-177.629, 198.379], [-177.243, 197.996], [-177.235, 197.988]]}, "properties": {"id": "curb_12", "height": 0.15, "low_side_kind": "drivable", "high_side_kind": "sidewalk", "layer": null}}, {"type": "Feature", "geometry": {"type": "LineString", "coordinates": [[-135.603, -223.56], [-198.4, -162.92], [-202.024, -159.42], [-205.571, -162.281], [-205.563, -163.054], [-206.543, -163.064], [-212.677, -168.01], [-207.967, -172.535], [-157.864, -220.679]]}, "properties": {"id": "curb_13", "height": 0.15, "low_side_kind": "drivable", "high_side_kind": "sidewalk", "layer": null}}, {"type": "Feature", "geometry": {"type": "LineString", "coordinates": [[-148.057, 88.295], [-148.074, 88.278], [-155.755, 81.013], [-159.053, 77.587], [-160.802, 75.481], [-161.809, 74.064], [-162.947, 71.983], [-163.348, 70.744], [-163.423, 70.216], [-163.353, 69.383], [-163.008, 68.659], [-119.524, 21.884], [-118.205, 20.177], [-118.205, 20.176], [-117.048, 18.356], [-116.055, 16.424], [-114.962, 13.637], [-114.171, 11.911], [-113.256, 10.323], [-112.197, 8.826], [-110.964, 7.388], [-95.697, -8.821], [-90.443, -14.031], [-90.378, -13.959], [-89.593, -14.593], [-88.806, -14.919], [-87.864, -14.988], [-86.665, -14.769], [-85.994, -14.546], [-84.577, -13.904], [-83.121, -13.054], [-81.661, -12.052], [-78.434, -9.425], [9.307, 78.721], [9.177, 78.848], [10.574, 80.252], [9.93, 81.69], [9.788, 90.613], [9.96, 100.955], [9.448, 102.03], [5.676, 105.673], [5.246, 106.107], [-4.691, 116.128], [-14.174, 125.691], [-50.531, 162.356], [-51.868, 163.705], [-52.314, 163.263]]}, "properties": {"id": "curb_14", "height": 0.15, "low_side_kind": "drivable", "high_side_kind": "sidewalk", "layer": null}}, {"type": "Feature", "geometry": {"type": "LineString", "coordinates": [[-106.845, 129.669], [-113.519, 122.548], [-118.918, 117.194], [-128.004, 108.183], [-129.289, 106.908], [-148.056, 88.295]]}, "properties": {"id": "curb_15", "height": 0.15, "low_side_kind": "drivable", "high_side_kind": "sidewalk", "layer": null}}, {"type": "Feature", "geometry": {"type": "LineString", "coordinates": [[-141.62, 162.694], [-139.714, 160.805]]}, "properties": {"id": "curb_16", "height": 0.15, "low_side_kind": "drivable", "high_side_kind": "sidewalk", "layer": null}}, {"type": "Feature", "geometry": {"type": "LineString", "coordinates": [[-35.284, -163.715], [-33.177, -161.579], [-19.448, -147.8], [-19.304, -143.495], [-19.256, -142.061], [-47.793, -112.516], [-58.452, -100.998], [-60.631, -98.209], [-68.919, -85.562], [-69.022, -85.404], [-69.175, -85.172], [-69.298, -84.985], [-69.319, -84.952], [-69.591, -85.084], [-70.578, -83.493], [-71.655, -81.533], [-71.655, -81.532], [-75.747, -76.116], [-78.862, -72.346], [-81.445, -69.392], [-84.688, -65.853], [-86.742, -65.672], [-89.739, -65.547], [-93.737, -65.638], [-97.717, -66.029], [-101.653, -66.734], [-105.515, -67.772], [-109.26, -69.171], [-111.073, -70.016], [-112.834, -70.963], [-114.533, -72.017], [-116.159, -73.181], [-117.699, -74.457], [-186.358, -143.401], [-186.999, -144.045], [-187.423, -144.471], [-187.474, -144.522], [-187.475, -144.523], [-187.478, -144.526], [-199.229, -156.558], [-195.578, -160.083], [-132.825, -220.683]]}, "properties": {"id": "curb_17", "height": 0.15, "low_side_kind": "drivable", "high_side_kind": "sidewalk", "layer": null}}, {"type": "Feature", "geometry": {"type": "LineString", "coordinates": [[-128.754, 127.157], [-128.753, 127.158], [-128.741, 127.17], [-123.489, 132.577], [-122.008, 134.103], [-121.743, 134.504], [-122.678, 134.923], [-121.39, 137.789], [-121.436, 137.82], [-123.647, 135.588], [-123.986, 135.924], [-124.2, 136.136]]}, "properties": {"id": "curb_18", "height": 0.15, "low_side_kind": "drivable", "high_side_kind": "sidewalk", "layer": null}}, {"type": "Feature", "geometry": {"type": "LineString", "coordinates": [[-119.635, 140.907], [-118.728, 140.008], [-118.59, 140.118], [-117.872, 139.218], [-117.755, 138.734], [-116.986, 139.382], [-81.885, 174.159], [-82.467, 174.386], [-82.437, 194.185], [-105.949, 218.298]]}, "properties": {"id": "curb_19", "height": 0.15, "low_side_kind": "drivable", "high_side_kind": "sidewalk", "layer": null}}, {"type": "Feature", "geometry": {"type": "LineString", "coordinates": [[-52.315, 163.263], [-53.823, 163.292], [-53.824, 163.293], [-63.425, 163.48], [-71.878, 163.528], [-71.879, 163.528], [-72.301, 163.39], [-74.293, 161.93], [-100.959, 135.519], [-100.899, 135.459], [-103.748, 132.617], [-106.231, 130.254]]}, "properties": {"id": "curb_20", "height": 0.15, "low_side_kind": "drivable", "high_side_kind": "sidewalk", "layer": null}}, {"type": "Feature", "geometry": {"type": "LineString", "coordinates": [[-8.047, -154.424], [-8.717, -153.814], [-9.57, -153.303], [-10.579, -153.014], [-11.797, -152.954], [-13.194, -153.135], [-15.475, -153.813], [-17.83, -154.87], [-20.18, -156.197], [-23.13, -158.176], [-27.664, -161.886], [-30.55, -164.428], [-32.604, -166.407], [-88.625, -223.214]]}, "properties": {"id": "curb_21", "height": 0.15, "low_side_kind": "drivable", "high_side_kind": "sidewalk", "layer": null}}, {"type": "Feature", "geometry": {"type": "LineString", "coordinates": [[-76.142, 202.78], [-75.553, 203.348], [-72.356, 201.949], [-54.57, 201.889], [-53.007, 203.018], [-52.251, 203.707], [-28.146, 227.617]]}, "properties": {"id": "curb_22", "height": 0.15, "low_side_kind": "drivable", "high_side_kind": "sidewalk", "layer": null}}, {"type": "Feature", "geometry": {"type": "LineString", "coordinates": [[-48.078, -63.821], [-68.527, -42.547], [-68.776, -45.266], [-68.776, -45.267], [-68.035, -47.416], [-68.034, -47.417], [-67.453, -48.04], [-66.246, -49.336], [-49.409, -67.405]]}, "properties": {"id": "curb_23", "height": 0.15, "low_side_kind": "drivable", "high_side_kind": "sidewalk", "layer": null}}, {"type": "Feature", "geometry": {"type": "LineString", "coordinates": [[3.69, -115.184], [2.634, -113.917], [-34.878, -73.994], [-36.162, -72.756], [-37.531, -71.64], [-38.988, -70.643], [-41.428, -69.281], [-43.173, -68.193], [-44.822, -66.964], [-46.365, -65.603], [-46.9, -65.047]]}, "properties": {"id": "curb_24", "height": 0.15, "low_side_kind": "drivable", "high_side_kind": "sidewalk", "layer": null}}, {"type": "Feature", "geometry": {"type": "LineString", "coordinates": [[-18.287, 217.677], [-42.392, 193.767], [-44.247, 191.926], [-44.423, 191.317], [-44.045, 190.107], [-44.363, 175.455], [-44.363, 175.454], [-44.647, 174.528], [-44.647, 174.526], [-44.502, 171.501], [-44.502, 171.5], [-44.394, 171.312], [-44.414, 171.1], [-44.413, 171.098], [-44.386, 171.072], [-44.378, 171.064], [-44.364, 171.05], [14.756, 111.438], [27.258, 99.949], [29.13, 99.687], [30.462, 100.229], [42.591, 112.322]]}, "properties": {"id": "curb_25", "height": 0.15, "low_side_kind": "drivable", "high_side_kind": "sidewalk", "layer": null}}, {"type": "Feature", "geometry": {"type": "LineString", "coordinates": [[-8.532, -111.271], [-3.898, -116.244], [-0.66, -114.991], [0.361, -114.991], [1.41, -115.315], [2.152, -115.273]]}, "properties": {"id": "curb_26", "height": 0.15, "low_side_kind": "drivable", "high_side_kind": "sidewalk", "layer": null}}, {"type": "Feature", "geometry": {"type": "LineString", "coordinates": [[72.641, -229.247], [36.226, -189.676], [4.589, -156.152], [4.281, -156.439], [-1.252, -153.472], [-4.382, -152.768], [-0.994, -156.562], [58.715, -221.001], [56.294, -223.244], [-3.444, -158.774], [-6.174, -155.667], [-7.714, -154.06]]}, "properties": {"id": "curb_27", "height": 0.15, "low_side_kind": "drivable", "high_side_kind": "sidewalk", "layer": null}}, {"type": "Feature", "geometry": {"type": "LineString", "coordinates": [[30.695, -103.44], [27.758, -106.372], [25.591, -109.157], [24.022, -111.464], [22.611, -113.841], [21.389, -116.273], [20.406, -118.736], [19.915, -120.377], [19.483, -122.78], [19.435, -124.296], [19.489, -125.014], [19.761, -126.347], [20.25, -127.535], [21.02, -128.668], [23.366, -131.42], [95.396, -208.307]]}, "properties": {"id": "curb_28", "height": 0.15, "low_side_kind": "drivable", "high_side_kind": "sidewalk", "layer": null}}, {"type": "Feature", "geometry": {"type": "LineString", "coordinates": [[201.084, 99.487], [200.84, 99.971], [200.386, 100.522], [141.115, 159.887], [139.494, 161.055], [138.625, 161.55], [136.803, 162.372], [135.86, 162.704], [133.929, 163.222], [130.963, 163.657], [128.965, 163.731], [126.968, 163.635], [124.987, 163.366], [123.039, 162.916], [121.147, 162.271], [119.341, 161.415], [117.665, 160.326], [116.894, 159.689], [51.895, 94.927], [51.235, 94.177], [50.675, 93.349], [50.216, 92.461], [49.582, 90.567], [49.28, 88.592], [49.235, 87.593], [49.33, 85.597], [49.389, 85.228]]}, "properties": {"id": "curb_29", "height": 0.15, "low_side_kind": "drivable", "high_side_kind": "sidewalk", "layer": null}}, {"type": "Feature", "geometry": {"type": "LineString", "coordinates": [[49.53, 84.333], [49.643, 83.622], [50.152, 81.689], [50.849, 79.815], [51.733, 78.022], [52.815, 76.342], [53.437, 75.559], [58.145, 70.71]]}, "properties": {"id": "curb_30", "height": 0.15, "low_side_kind": "drivable", "high_side_kind": "sidewalk", "layer": null}}, {"type": "Feature", "geometry": {"type": "LineString", "coordinates": [[111.783, 189.942], [83.761, 218.111]]}, "properties": {"id": "curb_31", "height": 0.15, "low_side_kind": "drivable", "high_side_kind": "sidewalk", "layer": null}}, {"type": "Feature", "geometry": {"type": "LineString", "coordinates": [[87.205, 40.783], [108.545, 19.808]]}, "properties": {"id": "curb_32", "height": 0.15, "low_side_kind": "drivable", "high_side_kind": "sidewalk", "layer": null}}, {"type": "Feature", "geometry": {"type": "LineString", "coordinates": [[93.094, -214.039], [94.502, -212.617], [92.748, -210.744], [20.712, -133.852], [14.438, -126.545], [14.004, -134.519], [13.956, -135.407], [51.59, -175.359], [88.093, -215.027]]}, "properties": {"id": "curb_33", "height": 0.15, "low_side_kind": "drivable", "high_side_kind": "sidewalk", "layer": null}}, {"type": "Feature", "geometry": {"type": "LineString", "coordinates": [[97.037, -210.056], [104.604, -202.414], [105.52, -202.43], [111.459, -202.532], [114.512, -198.553], [116.68, -196.108], [116.723, -196.065], [199.048, -112.919], [198.973, -112.847], [198.972, -112.847], [200.221, -111.332], [201.08, -109.884], [201.08, -109.883], [201.082, -105.248], [201.086, -91.747], [199.995, -89.968], [198.982, -88.788], [198.98, -88.785], [198.979, -88.784]]}, "properties": {"id": "curb_34", "height": 0.15, "low_side_kind": "drivable", "high_side_kind": "sidewalk", "layer": null}}, {"type": "Feature", "geometry": {"type": "LineString", "coordinates": [[98.932, 168.494], [99.997, 169.555], [103.112, 172.661]]}, "properties": {"id": "curb_35", "height": 0.15, "low_side_kind": "drivable", "high_side_kind": "sidewalk", "layer": null}}, {"type": "Feature", "geometry": {"type": "LineString", "coordinates": [[103.24, 172.535], [107.153, 176.67], [111.667, 181.881]]}, "properties": {"id": "curb_36", "height": 0.15, "low_side_kind": "drivable", "high_side_kind": "sidewalk", "layer": null}}, {"type": "Feature", "geometry": {"type": "LineString", "coordinates": [[109.172, -3.485], [109.167, 1.702], [106.744, 5.657], [105.315, 7.58], [100.86, 11.799], [79.331, 32.959], [46.259, 66.987], [44.286, 67.768], [39.855, 72.46], [29.032, 72.572], [23.151, 67.112], [-54.876, -11.323], [-56.245, -12.78], [-58.148, -15.098], [-59.877, -17.55], [-61.438, -20.111], [-63.272, -23.665], [-64.47, -26.415], [-65.84, -30.172], [-66.958, -34.012], [-67.858, -38.084], [-65.781, -40.365], [-48.384, -58.454], [-45.456, -61.498], [-45.291, -61.669], [-44.91, -62.065], [-44.338, -62.66], [-43.941, -63.073], [-42.615, -64.244], [-41.198, -65.299], [-39.648, -66.266], [-37.143, -67.665], [-35.433, -68.835], [-33.837, -70.135], [-32.396, -71.526], [5.184, -111.521], [5.447, -111.363], [5.447, -111.364], [7.039, -113.342], [8.96, -115.367], [13.123, -115.541], [78.624, -50.237], [79.497, -49.366], [79.513, -49.351], [79.514, -49.35], [84.07, -45.426], [84.072, -45.424], [106.636, -22.359]]}, "properties": {"id": "curb_37", "height": 0.15, "low_side_kind": "drivable", "high_side_kind": "sidewalk", "layer": null}}, {"type": "Feature", "geometry": {"type": "LineString", "coordinates": [[107.468, -21.34], [111.181, -20.78]]}, "properties": {"id": "curb_38", "height": 0.15, "low_side_kind": "drivable", "high_side_kind": "sidewalk", "layer": null}}, {"type": "Feature", "geometry": {"type": "LineString", "coordinates": [[114.853, -25.212], [111.493, -25.39], [108.414, -25.26], [107.778, -25.91]]}, "properties": {"id": "curb_39", "height": 0.15, "low_side_kind": "drivable", "high_side_kind": "sidewalk", "layer": null}}, {"type": "Feature", "geometry": {"type": "LineString", "coordinates": [[111.532, -20.727], [111.533, -20.727], [111.534, -20.727], [114.868, -20.224], [118.608, -19.885]]}, "properties": {"id": "curb_40", "height": 0.15, "low_side_kind": "drivable", "high_side_kind": "sidewalk", "layer": null}}, {"type": "Feature", "geometry": {"type": "LineString", "coordinates": [[112.562, 204.087], [112.632, 204.156], [112.633, 204.155], [115.618, 201.27], [117.724, 199.44], [119.506, 198.09], [122.806, 197.978], [125.955, 197.871], [128.719, 200.627], [157.125, 228.943]]}, "properties": {"id": "curb_41", "height": 0.15, "low_side_kind": "drivable", "high_side_kind": "sidewalk", "layer": null}}, {"type": "Feature", "geometry": {"type": "LineString", "coordinates": [[231.578, -121.274], [231.714, -121.139], [230.516, -119.934], [206.823, -119.856], [206.491, -120.188], [207.271, -120.96], [124.895, -204.156], [117.448, -205.6], [114.799, -211.656], [116.792, -214.004], [116.745, -215.916], [116.7, -217.781], [116.7, -217.782], [115.355, -218.484], [115.033, -218.652], [113.368, -219.521]]}, "properties": {"id": "curb_42", "height": 0.15, "low_side_kind": "drivable", "high_side_kind": "sidewalk", "layer": null}}, {"type": "Feature", "geometry": {"type": "LineString", "coordinates": [[114.589, 14.113], [115.367, 13.485], [116.529, 12.809]]}, "properties": {"id": "curb_43", "height": 0.15, "low_side_kind": "drivable", "high_side_kind": "sidewalk", "layer": null}}, {"type": "Feature", "geometry": {"type": "LineString", "coordinates": [[118.613, -25.885], [114.872, -25.549]]}, "properties": {"id": "curb_44", "height": 0.15, "low_side_kind": "drivable", "high_side_kind": "sidewalk", "layer": null}}, {"type": "Feature", "geometry": {"type": "LineString", "coordinates": [[121.513, -14.021], [120.869, -10.528], [116.251, -8.6]]}, "properties": {"id": "curb_45", "height": 0.15, "low_side_kind": "drivable", "high_side_kind": "sidewalk", "layer": null}}, {"type": "Feature", "geometry": {"type": "LineString", "coordinates": [[118.556, 12.802], [123.707, 12.785], [123.724, 12.785], [131.271, 12.947], [135.503, 12.7], [139.735, 12.453], [139.743, 12.116], [139.907, 12.12], [141.936, 12.163], [143.924, 14.224], [144.659, 14.986], [164.492, 37.063]]}, "properties": {"id": "curb_46", "height": 0.15, "low_side_kind": "drivable", "high_side_kind": "sidewalk", "layer": null}}, {"type": "Feature", "geometry": {"type": "LineString", "coordinates": [[118.609, -19.885], [118.618, -19.885], [118.645, -19.885], [118.75, -19.885]]}, "properties": {"id": "curb_47", "height": 0.15, "low_side_kind": "drivable", "high_side_kind": "sidewalk", "layer": null}}, {"type": "Feature", "geometry": {"type": "LineString", "coordinates": [[124.151, -19.881], [122.729, -17.883], [122.049, -16.927]]}, "properties": {"id": "curb_48", "height": 0.15, "low_side_kind": "drivable", "high_side_kind": "sidewalk", "layer": null}}, {"type": "Feature", "geometry": {"type": "LineString", "coordinates": [[124.123, 3.275], [122.754, 1.814], [127.96, -3.619], [131.801, -7.402], [133.233, -6.003]]}, "properties": {"id": "curb_49", "height": 0.15, "low_side_kind": "drivable", "high_side_kind": "sidewalk", "layer": null}}, {"type": "Feature", "geometry": {"type": "LineString", "coordinates": [[144.052, 8.232], [139.834, 7.804], [135.617, 7.376], [131.4, 6.948], [127.484, 6.864], [125.573, 4.823]]}, "properties": {"id": "curb_50", "height": 0.15, "low_side_kind": "drivable", "high_side_kind": "sidewalk", "layer": null}}, {"type": "Feature", "geometry": {"type": "LineString", "coordinates": [[136.677, -25.845], [132.495, -25.854]]}, "properties": {"id": "curb_51", "height": 0.15, "low_side_kind": "drivable", "high_side_kind": "sidewalk", "layer": null}}, {"type": "Feature", "geometry": {"type": "LineString", "coordinates": [[144.232, -12.091], [144.229, -14.394], [144.226, -16.12], [144.965, -18.566], [145.426, -19.374], [145.427, -19.375], [147.366, -21.361], [168.915, -43.422]]}, "properties": {"id": "curb_52", "height": 0.15, "low_side_kind": "drivable", "high_side_kind": "sidewalk", "layer": null}}, {"type": "Feature", "geometry": {"type": "LineString", "coordinates": [[173.929, 38.672], [159.755, 26.852], [147.075, 12.737], [144.351, 9.915]]}, "properties": {"id": "curb_53", "height": 0.15, "low_side_kind": "drivable", "high_side_kind": "sidewalk", "layer": null}}, {"type": "Feature", "geometry": {"type": "LineString", "coordinates": [[174.919, -64.498], [174.286, -63.859], [164.249, -54.068], [161.26, -51.009]]}, "properties": {"id": "curb_54", "height": 0.15, "low_side_kind": "drivable", "high_side_kind": "sidewalk", "layer": null}}, {"type": "Feature", "geometry": {"type": "LineString", "coordinates": [[165.234, 36.572], [165.235, 36.573], [170.299, 42.395], [181.466, 53.419], [181.486, 53.438], [181.551, 53.502], [181.715, 53.338], [184.598, 56.217], [187.74, 58.836]]}, "properties": {"id": "curb_55", "height": 0.15, "low_side_kind": "drivable", "high_side_kind": "sidewalk", "layer": null}}, {"type": "Feature", "geometry": {"type": "LineString", "coordinates": [[169.018, -43.32], [171.398, -45.653], [172.209, -46.449], [172.211, -46.45], [172.986, -46.73], [173.975, -46.865], [174.973, -46.828], [175.953, -46.634], [176.969, -46.231], [177.793, -45.422], [176.514, -44.065], [234.727, 10.801]]}, "properties": {"id": "curb_56", "height": 0.15, "low_side_kind": "drivable", "high_side_kind": "sidewalk", "layer": null}}, {"type": "Feature", "geometry": {"type": "LineString", "coordinates": [[169.833, 216.195], [141.426, 187.878], [140.738, 187.192], [140.739, 179.989], [140.739, 175.281], [149.285, 166.625], [149.286, 166.623], [179.246, 136.586], [183.885, 131.935], [203.806, 111.963], [207.879, 107.995]]}, "properties": {"id": "curb_57", "height": 0.15, "low_side_kind": "drivable", "high_side_kind": "sidewalk", "layer": null}}, {"type": "Feature", "geometry": {"type": "LineString", "coordinates": [[182.156, -50.054], [180.54, -51.657], [178.91, -53.274], [182.596, -56.888], [208.741, -83.247], [215.559, -83.27]]}, "properties": {"id": "curb_58", "height": 0.15, "low_side_kind": "drivable", "high_side_kind": "sidewalk", "layer": null}}, {"type": "Feature", "geometry": {"type": "LineString", "coordinates": [[205.24, 69.416], [194.761, 60.278], [194.758, 60.275], [190.567, 56.006], [187.943, 52.867], [185.06, 49.988], [185.225, 49.823]]}, "properties": {"id": "curb_59", "height": 0.15, "low_side_kind": "drivable", "high_side_kind": "sidewalk", "layer": null}}, {"type": "Feature", "geometry": {"type": "LineString", "coordinates": [[253.757, 17.814], [186.333, -45.733]]}, "properties": {"id": "curb_60", "height": 0.15, "low_side_kind": "drivable", "high_side_kind": "sidewalk", "layer": null}}, {"type": "Feature", "geometry": {"type": "LineString", "coordinates": [[187.664, 59.13], [200.839, 70.62], [202.251, 71.851], [202.264, 72.828], [202.265, 72.875], [202.265, 72.896], [202.265, 72.898], [202.28, 74.02], [201.831, 74.027], [201.831, 74.028], [201.32, 80.875], [201.111, 97.351], [201.093, 98.808], [201.088, 99.172], [201.084, 99.486]]}, "properties": {"id": "curb_61", "height": 0.15, "low_side_kind": "drivable", "high_side_kind": "sidewalk", "layer": null}}, {"type": "Feature", "geometry": {"type": "LineString", "coordinates": [[207.018, 77.374], [206.73, 73.958], [206.232, 70.544]]}, "properties": {"id": "curb_62", "height": 0.15, "low_side_kind": "drivable", "high_side_kind": "sidewalk", "layer": null}}, {"type": "Feature", "geometry": {"type": "LineString", "coordinates": [[209.227, 88.418], [207.53, 86.726], [207.246, 86.876], [207.319, 80.949], [207.06, 77.877], [207.06, 77.875], [207.06, 77.874]]}, "properties": {"id": "curb_63", "height": 0.15, "low_side_kind": "drivable", "high_side_kind": "sidewalk", "layer": null}}, {"type": "Feature", "geometry": {"type": "LineString", "coordinates": [[208.972, 106.93], [215.442, 106.93]]}, "properties": {"id": "curb_64", "height": 0.15, "low_side_kind": "drivable", "high_side_kind": "sidewalk", "layer": null}}, {"type": "Feature", "geometry": {"type": "LineString", "coordinates": [[211.948, 90.246], [211.911, 90.283], [211.689, 90.505], [211.504, 90.689], [210.088, 89.277]]}, "properties": {"id": "curb_65", "height": 0.15, "low_side_kind": "drivable", "high_side_kind": "sidewalk", "layer": null}}, {"type": "Feature", "geometry": {"type": "LineString", "coordinates": [[236.038, 64.185], [231.735, 68.519], [231.046, 69.244], [230.097, 70.431], [223.57, 70.483], [217.58, 76.308]]}, "properties": {"id": "curb_66", "height": 0.15, "low_side_kind": "drivable", "high_side_kind": "sidewalk", "layer": null}}, {"type": "Feature", "geometry": {"type": "LineString", "coordinates": [[219.117, -86.35], [220.491, -87.54], [222.715, -89.783], [222.761, -89.736]]}, "properties": {"id": "curb_67", "height": 0.15, "low_side_kind": "drivable", "high_side_kind": "sidewalk", "layer": null}}, {"type": "Feature", "geometry": {"type": "LineString", "coordinates": [[220.293, 79.098], [221.687, 80.531], [221.629, 80.589], [221.619, 80.599], [221.607, 80.611]]}, "properties": {"id": "curb_68", "height": 0.15, "low_side_kind": "drivable", "high_side_kind": "sidewalk", "layer": null}}, {"type": "Feature", "geometry": {"type": "LineString", "coordinates": [[225.137, 94.115], [228.59, 87.629], [231.154, 90.266], [233.49, 89.341], [233.603, 90.643], [233.796, 98.335], [233.963, 100.562], [234.135, 101.685], [234.651, 103.898], [235.392, 106.046], [236.35, 108.106]]}, "properties": {"id": "curb_69", "height": 0.15, "low_side_kind": "drivable", "high_side_kind": "sidewalk", "layer": null}}, {"type": "Feature", "geometry": {"type": "LineString", "coordinates": [[254.826, -73.279], [230.637, -97.559], [230.529, -97.667], [231.938, -99.088]]}, "properties": {"id": "curb_70", "height": 0.15, "low_side_kind": "drivable", "high_side_kind": "sidewalk", "layer": null}}, {"type": "Feature", "geometry": {"type": "LineString", "coordinates": [[237.442, -104.64], [237.451, -111.025], [237.451, -111.029], [239.663, -113.258]]}, "properties": {"id": "curb_71", "height": 0.15, "low_side_kind": "drivable", "high_side_kind": "sidewalk", "layer": null}}, {"type": "Feature", "geometry": {"type": "LineString", "coordinates": [[237.514, 110.057], [238.873, 111.878], [240.385, 113.521], [248.799, 121.765]]}, "properties": {"id": "curb_72", "height": 0.15, "low_side_kind": "drivable", "high_side_kind": "sidewalk", "layer": null}}, {"type": "Feature", "geometry": {"type": "LineString", "coordinates": [[252.998, 117.479], [244.696, 109.345], [243.498, 108.042], [242.462, 106.654], [241.693, 105.366], [240.964, 103.797], [240.424, 102.234], [239.929, 99.882], [239.79, 98.033], [239.79, 98.03], [239.596, 90.309], [239.313, 87.038], [239.262, 86.443], [237.447, 79.748], [237.899, 78.491], [238.55, 77.294], [239.407, 76.265], [242.792, 72.856]]}, "properties": {"id": "curb_73", "height": 0.15, "low_side_kind": "drivable", "high_side_kind": "sidewalk", "layer": null}}, {"type": "Feature", "geometry": {"type": "LineString", "coordinates": [[243.812, 71.829], [243.82, 71.821], [243.823, 71.817], [254.023, 61.544]]}, "properties": {"id": "curb_74", "height": 0.15, "low_side_kind": "drivable", "high_side_kind": "sidewalk", "layer": null}}, {"type": "Feature", "geometry": {"type": "LineString", "coordinates": [[-188.996, 43.803], [-150.358, 2.519], [-149.107, 1.339], [-147.099, -0.281], [-144.949, -1.706], [-141.762, -3.478], [-140.141, -4.518], [-137.84, -6.265], [-136.402, -7.546], [-135.056, -8.906], [-120.862, -24.187], [-116.685, -28.842], [-113.065, -32.656], [-113.037, -31.81], [-112.097, -30.694], [-176.892, 40.007], [-180.22, 43.638], [-187.824, 43.781], [-188.996, 43.803]]}, "properties": {"id": "curb_75", "height": 0.15, "low_side_kind": "drivable", "high_side_kind": "sidewalk", "layer": null}}, {"type": "Feature", "geometry": {"type": "LineString", "coordinates": [[-169.172, 65.741], [-167.789, 62.144], [-167.133, 60.439], [-161.907, 54.737], [-136.908, 27.46], [-115.527, 4.13], [-113.71, 2.147], [-98.452, -14.502], [-98.063, -14.926], [-94.45, -14.985], [-98.204, -11.264], [-113.568, 5.048], [-114.96, 6.672], [-116.207, 8.434], [-117.285, 10.305], [-118.184, 12.267], [-119.249, 14.981], [-120.088, 16.615], [-121.073, 18.164], [-122.195, 19.617], [-167.83, 68.632], [-168.64, 67.145], [-169.172, 65.742], [-169.172, 65.741]]}, "properties": {"id": "curb_76", "height": 0.15, "low_side_kind": "drivable", "high_side_kind": "sidewalk", "layer": null}}, {"type": "Feature", "geometry": {"type": "LineString", "coordinates": [[-70.16, -76.035], [-68.884, -79.023], [-67.967, -80.8], [-66.955, -82.525], [-57.921, -96.324], [-55.968, -98.824], [-45.395, -110.249], [-20.055, -136.481], [-19.1, -137.371], [-19.037, -135.497], [-18.885, -130.965], [-23.792, -125.698], [-70.101, -75.997], [-70.16, -76.035]]}, "properties": {"id": "curb_77", "height": 0.15, "low_side_kind": "drivable", "high_side_kind": "sidewalk", "layer": null}}, {"type": "Feature", "geometry": {"type": "LineString", "coordinates": [[43.135, 85.397], [45.969, 82.73], [45.569, 85.205], [45.476, 86.414], [45.5, 88.662], [43.469, 86.705], [43.135, 85.397]]}, "properties": {"id": "curb_78", "height": 0.15, "low_side_kind": "drivable", "high_side_kind": "sidewalk", "layer": null}}]}