{"type": "FeatureCollection", "features": [{"type": "Feature", "geometry": {"type": "LineString", "coordinates": [[180.5782812643702, -48.30579176536159], [252.33393815088078, 19.3233768645987]]}, "properties": {"kind": "solid", "color": "white", "width": 0.12, "layer": null}}, {"type": "Feature", "geometry": {"type": "LineString", "coordinates": [[177.9732699804932, -45.53921998415503], [249.7276231081147, 22.08871986282718]]}, "properties": {"kind": "solid", "color": "white", "width": 0.12, "layer": null}}, {"type": "Feature", "geometry": {"type": "LineString", "coordinates": [[-100.94570205017632, 223.19368162404808], [-82.93515739596953, 204.7864835688298], [-78.697251469756, 200.38788934061498]]}, "properties": {"kind": "broken", "color": "white", "width": 0.12, "layer": null}}, {"type": "Feature", "geometry": {"type": "LineString", "coordinates": [[-103.44738313760642, 220.74590881253258], [-85.44627743781564, 202.34835758958423], [-81.21777158547533, 197.95951985700748]]}, "properties": {"kind": "broken", "color": "white", "width": 0.12, "layer": null}}, {"type": "Feature", "geometry": {"type": "LineString", "coordinates": [[-105.87758762253853, 218.36807236706036], [-87.8856511927528, 199.9798923526038], [-83.66374726389236, 195.59790686805218]]}, "properties": {"kind": "solid", "color": "white", "width": 0.12, "layer": null}}, {"type": "Feature", "geometry": {"type": "LineString", "coordinates": [[-98.51549756524423, 225.5715180695203], [-80.49578364103144, 207.15494880580928], [-76.24874621448579, 202.7468768389766]]}, "properties": {"kind": "solid", "color": "white", "width": 0.12, "layer": null}}, {"type": "Feature", "geometry": {"type": "LineString", "coordinates": [[-49.750855052017755, 201.25685387596923], [-25.681508405165367, 225.13170734647557]]}, "properties": {"kind": "broken", "color": "white", "width": 0.12, "layer": null}}, {"type": "Feature", "geometry": {"type": "LineString", "coordinates": [[-47.28600092649733, 198.77200093401456], [-23.216694665917508, 222.64681434459098]]}, "properties": {"kind": "broken", "color": "white", "width": 0.12, "layer": null}}, {"type": "Feature", "geometry": {"type": "LineString", "coordinates": [[-44.8211468009769, 196.2871479920599], [-20.75188092666965, 220.1619213427064]]}, "properties": {"kind": "broken", "color": "white", "width": 0.12, "layer": null}}, {"type": "Feature", "geometry": {"type": "LineString", "coordinates": [[-42.426242982877376, 193.87376111366194], [-18.357490437114585, 217.7480252837328]]}, "properties": {"kind": "solid", "color": "white", "width": 0.12, "layer": null}}, {"type": "Feature", "geometry": {"type": "LineString", "coordinates": [[-52.145284773951886, 203.6707110195823], [-28.07589889472043, 227.54560340544916]]}, "properties": {"kind": "solid", "color": "white", "width": 0.12, "layer": null}}, {"type": "Feature", "geometry": {"type": "LineString", "coordinates": [[-252.76444561186344, -4.222447046972255], [-235.37335894815905, 12.748754723216111], [-217.13186960000567, 31.625869600005668]]}, "properties": {"kind": "broken", "color": "white", "width": 0.12, "layer": null}}, {"type": "Feature", "geometry": {"type": "LineString", "coordinates": [[-250.31999571743236, -6.727375132490048], [-232.89215756059357, 10.27969081441139], [-214.58488112162829, 29.224885136193866]]}, "properties": {"kind": "broken", "color": "white", "width": 0.12, "layer": null}}, {"type": "Feature", "geometry": {"type": "LineString", "coordinates": [[-247.94538724855644, -9.160733844135905], [-230.4818476412448, 7.881171588714853], [-212.1397867215678, 26.86236245802654]]}, "properties": {"kind": "solid", "color": "white", "width": 0.12, "layer": null}}, {"type": "Feature", "geometry": {"type": "LineString", "coordinates": [[-255.13905408073936, -1.789088335326399], [-237.7836688675078, 15.14727394891268], [-219.5478421718772, 34.018528857793946]]}, "properties": {"kind": "solid", "color": "white", "width": 0.12, "layer": null}}, {"type": "Feature", "geometry": {"type": "LineString", "coordinates": [[-56.998619452282846, -74.65410806222003], [-16.19542126352363, -118.4487584464882]]}, "properties": {"kind": "broken", "color": "white", "width": 0.12, "layer": null}}, {"type": "Feature", "geometry": {"type": "LineString", "coordinates": [[-54.45582895128116, -72.24892336295947], [-13.651985792718136, -116.04426600245077]]}, "properties": {"kind": "broken", "color": "white", "width": 0.12, "layer": null}}, {"type": "Feature", "geometry": {"type": "LineString", "coordinates": [[-51.913038450279494, -69.84373866369891], [-10.296267526840762, -114.51160818418857]]}, "properties": {"kind": "broken", "color": "white", "width": 0.12, "layer": null}}, {"type": "Feature", "geometry": {"type": "LineString", "coordinates": [[-49.45411235042853, -67.4952381937333], [-4.035931483010166, -116.24321483459403]]}, "properties": {"kind": "solid", "color": "white", "width": 0.12, "layer": null}}, {"type": "Feature", "geometry": {"type": "LineString", "coordinates": [[-62.0842004542862, -79.46447746074115], [-21.282292205134617, -123.25774333456306]]}, "properties": {"kind": "broken", "color": "white", "width": 0.12, "layer": null}}, {"type": "Feature", "geometry": {"type": "LineString", "coordinates": [[-64.55478126829192, -81.80046876097515], [-18.92889567898052, -130.771377820917]]}, "properties": {"kind": "solid", "color": "white", "width": 0.12, "layer": null}}, {"type": "Feature", "geometry": {"type": "LineString", "coordinates": [[-59.54140995328452, -77.05929276148059], [-18.738856734329126, -120.85325089052563]]}, "properties": {"kind": "solid", "color": "white", "width": 0.12, "layer": null}}, {"type": "Feature", "geometry": {"type": "LineString", "coordinates": [[-69.19756791392335, -84.9546314337855], [-60.549067029041915, -98.1519563646786], [-59.50157302594125, -99.57242412552749], [-58.37628612932863, -100.93200558854213], [-47.72043414304512, -112.44751030551035], [-22.39436483353543, -138.66546286428382]]}, "properties": {"kind": "solid", "color": "white", "width": 0.12, "layer": null}}, {"type": "Feature", "geometry": {"type": "LineString", "coordinates": [[-66.6145617996882, -83.24045464888398], [-58.00320865146414, -96.38109336818502], [-57.05811116839383, -97.66270500661633], [-56.0427875841258, -98.88942783462382], [-45.46770500416509, -110.31764713502524], [-20.245386072922038, -136.42819564060326]]}, "properties": {"kind": "solid", "color": "white", "width": 0.12, "layer": null}}, {"type": "Feature", "geometry": {"type": "LineString", "coordinates": [[-123.57662983731555, 135.65943991875335], [-205.95650038807403, 217.25535158021003], [-207.06071828597123, 218.40458188266862], [-208.42363770581602, 220.03715838451643]]}, "properties": {"kind": "solid", "color": "white", "width": 0.12, "layer": null}}, {"type": "Feature", "geometry": {"type": "LineString", "coordinates": [[-119.07283398876288, 140.20650743029964], [-201.39642454004374, 221.74667467464346], [-202.29092817861624, 222.67764191314288], [-203.51063317466173, 224.13866865231506]]}, "properties": {"kind": "solid", "color": "white", "width": 0.12, "layer": null}}, {"type": "Feature", "geometry": {"type": "LineString", "coordinates": [[-121.36047071837916, 137.96837237549445], [-203.6764624640589, 219.50101312742675], [-204.67582323229374, 220.54111189790575], [-205.96713544023888, 222.08791351841575]]}, "properties": {"kind": "solid", "color": "white", "width": 0.12, "layer": null}}, {"type": "Feature", "geometry": {"type": "LineString", "coordinates": [[113.75136251782591, 161.91662265700725], [49.263903195788, 97.64212907228267]]}, "properties": {"kind": "broken", "color": "white", "width": 0.12, "layer": null}}, {"type": "Feature", "geometry": {"type": "LineString", "coordinates": [[111.0823888625951, 164.59360587928097], [46.594921665711965, 100.31910444571737]]}, "properties": {"kind": "broken", "color": "white", "width": 0.12, "layer": null}}, {"type": "Feature", "geometry": {"type": "LineString", "coordinates": [[108.41491519794012, 167.27208413850698], [43.92542842612026, 102.99556979952456]]}, "properties": {"kind": "broken", "color": "white", "width": 0.12, "layer": null}}, {"type": "Feature", "geometry": {"type": "LineString", "coordinates": [[105.74593687316063, 169.9490627066529], [41.255950116010794, 105.67205003351033]]}, "properties": {"kind": "broken", "color": "white", "width": 0.12, "layer": null}}, {"type": "Feature", "geometry": {"type": "LineString", "coordinates": [[103.18313205446314, 172.59067611779435], [38.65757642227293, 108.2782120335614]]}, "properties": {"kind": "solid", "color": "white", "width": 0.12, "layer": null}}, {"type": "Feature", "geometry": {"type": "LineString", "coordinates": [[116.34874632195447, 159.3094740363944], [51.85933559237877, 95.03303548853148]]}, "properties": {"kind": "solid", "color": "white", "width": 0.12, "layer": null}}, {"type": "Feature", "geometry": {"type": "LineString", "coordinates": [[145.6823083749198, -24.779240097756947], [166.32775981953873, -45.91595774464256]]}, "properties": {"kind": "broken", "color": "white", "width": 0.12, "layer": null}}, {"type": "Feature", "geometry": {"type": "LineString", "coordinates": [[143.8203739412463, -28.015811670673624], [163.77553013757654, -48.44580823687939]]}, "properties": {"kind": "broken", "color": "white", "width": 0.12, "layer": null}}, {"type": "Feature", "geometry": {"type": "LineString", "coordinates": [[140.31266489752178, -29.424332979504356], [163.5753848749718, -53.240598038221854]]}, "properties": {"kind": "solid", "color": "white", "width": 0.12, "layer": null}}, {"type": "Feature", "geometry": {"type": "LineString", "coordinates": [[145.7621073452736, -19.86124031934126], [168.80896621366182, -43.456507773553895]]}, "properties": {"kind": "solid", "color": "white", "width": 0.12, "layer": null}}, {"type": "Feature", "geometry": {"type": "LineString", "coordinates": [[180.07603958689506, -59.46898020655247], [204.12061472967414, -83.72421391941772]]}, "properties": {"kind": "broken", "color": "white", "width": 0.12, "layer": null}}, {"type": "Feature", "geometry": {"type": "LineString", "coordinates": [[177.51413142069387, -62.00793428965307], [201.5587593939845, -86.2632212958869]]}, "properties": {"kind": "broken", "color": "white", "width": 0.12, "layer": null}}, {"type": "Feature", "geometry": {"type": "LineString", "coordinates": [[175.02437249274408, -64.47762750725593], [198.97579203407878, -88.6388894667723]]}, "properties": {"kind": "solid", "color": "white", "width": 0.12, "layer": null}}, {"type": "Feature", "geometry": {"type": "LineString", "coordinates": [[182.56027993753997, -56.993720062460035], [206.61216862181337, -81.25633139198767]]}, "properties": {"kind": "solid", "color": "white", "width": 0.12, "layer": null}}, {"type": "Feature", "geometry": {"type": "LineString", "coordinates": [[249.31472122176413, -67.75945843929703], [236.77409812252841, -80.28276662420724], [225.07364331050394, -92.09160849564141]]}, "properties": {"kind": "broken", "color": "white", "width": 0.12, "layer": null}}, {"type": "Feature", "geometry": {"type": "LineString", "coordinates": [[247.0535432312652, -65.49515411008613], [234.50691836584934, -78.02445577450152], [222.8207334983656, -89.81889551189026]]}, "properties": {"kind": "solid", "color": "white", "width": 0.12, "layer": null}}, {"type": "Feature", "geometry": {"type": "LineString", "coordinates": [[251.64656102446617, -70.09452227879576], [239.11212724660336, -82.61164968796659], [227.3969565542716, -94.43534376013478]]}, "properties": {"kind": "solid", "color": "white", "width": 0.12, "layer": null}}, {"type": "Feature", "geometry": {"type": "LineString", "coordinates": [[201.551, -115.36648743261375], [119.24471429136281, -198.4925357185221]]}, "properties": {"kind": "broken", "color": "white", "width": 0.12, "layer": null}}, {"type": "Feature", "geometry": {"type": "LineString", "coordinates": [[199.08660854387094, -113.02309331843944], [116.7938387327124, -196.13549108984867]]}, "properties": {"kind": "solid", "color": "white", "width": 0.12, "layer": null}}, {"type": "Feature", "geometry": {"type": "LineString", "coordinates": [[204.03758776024475, -117.82959154226084], [121.73239898048806, -200.95453197398407]]}, "properties": {"kind": "solid", "color": "white", "width": 0.12, "layer": null}}, {"type": "Feature", "geometry": {"type": "LineString", "coordinates": [[-212.58564401472842, 220.96829250376004], [-237.7044016322189, 196.13054317237368], [-249.76143081665288, 184.4219885529277]]}, "properties": {"kind": "broken", "color": "white", "width": 0.12, "layer": null}}, {"type": "Feature", "geometry": {"type": "LineString", "coordinates": [[-215.15594257200271, 223.56767079699267], [-240.26295489432138, 198.74153536394246], [-252.30813431048207, 187.04448802849933]]}, "properties": {"kind": "broken", "color": "white", "width": 0.12, "layer": null}}, {"type": "Feature", "geometry": {"type": "LineString", "coordinates": [[-217.65592931524571, 226.09594178534294], [-242.7515176408674, 201.2811025465808], [-254.78517144514683, 189.59524770757855]]}, "properties": {"kind": "solid", "color": "white", "width": 0.12, "layer": null}}, {"type": "Feature", "geometry": {"type": "LineString", "coordinates": [[-210.08565727148542, 218.44002151540977], [-235.21583888567287, 193.5909759897353], [-247.28439368198812, 181.87122887384848]]}, "properties": {"kind": "solid", "color": "white", "width": 0.12, "layer": null}}, {"type": "Feature", "geometry": {"type": "LineString", "coordinates": [[-169.36551614048838, 47.3349784765552], [-105.30826819387035, -22.560699965135452]]}, "properties": {"kind": "broken", "color": "white", "width": 0.12, "layer": null}}, {"type": "Feature", "geometry": {"type": "LineString", "coordinates": [[-166.8678742045891, 49.78992229942288], [-103.03415339834906, -19.861855855763558]]}, "properties": {"kind": "broken", "color": "white", "width": 0.12, "layer": null}}, {"type": "Feature", "geometry": {"type": "LineString", "coordinates": [[-164.3702322686898, 52.244866122290574], [-100.76003860282778, -17.163011746391664]]}, "properties": {"kind": "broken", "color": "white", "width": 0.12, "layer": null}}, {"type": "Feature", "geometry": {"type": "LineString", "coordinates": [[-166.94222366020603, 60.0835030788596], [-98.24688172884291, -14.873003545931269]]}, "properties": {"kind": "solid", "color": "white", "width": 0.12, "layer": null}}, {"type": "Feature", "geometry": {"type": "LineString", "coordinates": [[-174.36080001228694, 42.42509083081981], [-109.85649778491293, -27.95838818387924]]}, "properties": {"kind": "broken", "color": "white", "width": 0.12, "layer": null}}, {"type": "Feature", "geometry": {"type": "LineString", "coordinates": [[-180.03514912393, 43.58439840989242], [-112.06563787199075, -30.580122461554797]]}, "properties": {"kind": "solid", "color": "white", "width": 0.12, "layer": null}}, {"type": "Feature", "geometry": {"type": "LineString", "coordinates": [[-171.86315807638766, 44.8800346536875], [-107.58238298939165, -25.25954407450735]]}, "properties": {"kind": "solid", "color": "white", "width": 0.12, "layer": null}}, {"type": "Feature", "geometry": {"type": "LineString", "coordinates": [[-46.86230982041727, 168.5985869061103], [10.639181371285808, 110.6091527225378], [12.324945291635109, 108.91969539599609], [14.166227183436446, 107.20724423371463]]}, "properties": {"kind": "broken", "color": "white", "width": 0.12, "layer": null}}, {"type": "Feature", "geometry": {"type": "LineString", "coordinates": [[-49.34718423580591, 166.13375435225876], [8.157731193647757, 108.1408668737273], [9.893513934998616, 106.40128113799022], [11.782850330209248, 104.64413774765693]]}, "properties": {"kind": "broken", "color": "white", "width": 0.12, "layer": null}}, {"type": "Feature", "geometry": {"type": "LineString", "coordinates": [[-51.708875592822366, 163.68671609658114], [5.747179592511766, 105.74310347774185], [7.531552045694663, 103.95482157307018], [9.364438382577687, 102.25017854589387]]}, "properties": {"kind": "solid", "color": "white", "width": 0.12, "layer": null}}, {"type": "Feature", "geometry": {"type": "LineString", "coordinates": [[-44.44873499726628, 170.9933014257896], [13.049732972422083, 113.00691611852295], [14.68690718093906, 111.36615496091612], [16.48234220212067, 109.69634285744979]]}, "properties": {"kind": "solid", "color": "white", "width": 0.12, "layer": null}}, {"type": "Feature", "geometry": {"type": "LineString", "coordinates": [[19.47877557971384, 68.52884855599618], [-57.39290883960003, -8.749090696024892]]}, "properties": {"kind": "broken", "color": "white", "width": 0.12, "layer": null}}, {"type": "Feature", "geometry": {"type": "LineString", "coordinates": [[16.927056562994203, 71.06828367079125], [-59.944985155600484, -6.210014768781493]]}, "properties": {"kind": "broken", "color": "white", "width": 0.12, "layer": null}}, {"type": "Feature", "geometry": {"type": "LineString", "coordinates": [[14.375145237278593, 73.60752546026735], [-62.49705257588941, -3.6709298988141157]]}, "properties": {"kind": "broken", "color": "white", "width": 0.12, "layer": null}}, {"type": "Feature", "geometry": {"type": "LineString", "coordinates": [[11.823233911562983, 76.14676724974345], [-65.04911784800758, -1.1318428693232374]]}, "properties": {"kind": "broken", "color": "white", "width": 0.12, "layer": null}}, {"type": "Feature", "geometry": {"type": "LineString", "coordinates": [[9.376125209000072, 78.64956998430624], [-67.53083385012576, 1.3361696715172255]]}, "properties": {"kind": "solid", "color": "white", "width": 0.12, "layer": null}}, {"type": "Feature", "geometry": {"type": "LineString", "coordinates": [[21.72165555552256, 65.82073777779097], [-54.911723532377366, -11.217636736400422]]}, "properties": {"kind": "solid", "color": "white", "width": 0.12, "layer": null}}, {"type": "Feature", "geometry": {"type": "LineString", "coordinates": [[-132.89417742302655, -220.75491254153988], [-199.26267160192788, -156.6643417261959]]}, "properties": {"kind": "solid", "color": "white", "width": 0.12, "layer": null}}, {"type": "Feature", "geometry": {"type": "LineString", "coordinates": [[-135.5338634807825, -223.48841899232593], [-201.9177088507228, -159.3830238750514]]}, "properties": {"kind": "solid", "color": "white", "width": 0.12, "layer": null}}, {"type": "Feature", "geometry": {"type": "LineString", "coordinates": [[-215.6186104981389, -140.87749312936566], [-249.5864029811293, -108.0797471471708]]}, "properties": {"kind": "solid", "color": "white", "width": 0.12, "layer": null}}, {"type": "Feature", "geometry": {"type": "LineString", "coordinates": [[-218.29054719454436, -143.57985985010092], [-252.22591447463628, -110.81342215997768]]}, "properties": {"kind": "solid", "color": "white", "width": 0.12, "layer": null}}, {"type": "Feature", "geometry": {"type": "LineString", "coordinates": [[51.518020037669295, 72.19302003766929], [53.27760886989297, 70.43929044130692], [84.58041281165166, 38.17527805338006], [105.98364713418619, 17.138572679520134], [107.30277350888616, 15.902989087447436]]}, "properties": {"kind": "broken", "color": "white", "width": 0.12, "layer": null}}, {"type": "Feature", "geometry": {"type": "LineString", "coordinates": [[48.905802232962465, 69.57280107643008], [50.643756806432705, 67.84063369913642], [81.95553835970907, 35.567368026112185], [103.42185410682023, 14.46866149283008], [104.38891658225121, 13.562844923569624]]}, "properties": {"kind": "broken", "color": "white", "width": 0.12, "layer": null}}, {"type": "Feature", "geometry": {"type": "LineString", "coordinates": [[46.3647948801073, 67.0227948801073], [48.08109193847916, 65.31221290078625], [79.4016084582911, 33.02994403849383], [100.92930067860124, 11.870912099989482], [104.74772120460972, 8.294319409510726]]}, "properties": {"kind": "solid", "color": "white", "width": 0.12, "layer": null}}, {"type": "Feature", "geometry": {"type": "LineString", "coordinates": [[54.0239639247033, 74.77797294235681], [55.840273737847134, 72.96771123965648], [87.13434271306947, 40.712702040998565], [108.47620056240523, 19.736322072360696], [112.3080089173816, 16.147189429589673]]}, "properties": {"kind": "solid", "color": "white", "width": 0.12, "layer": null}}, {"type": "Feature", "geometry": {"type": "LineString", "coordinates": [[237.00790351413963, -115.9610964858604], [253.23571625836564, -132.33141077193469]]}, "properties": {"kind": "broken", "color": "white", "width": 0.12, "layer": null}}, {"type": "Feature", "geometry": {"type": "LineString", "coordinates": [[234.3098768250448, -118.63512226076608], [250.53794702380017, -135.00569626215915]]}, "properties": {"kind": "broken", "color": "white", "width": 0.12, "layer": null}}, {"type": "Feature", "geometry": {"type": "LineString", "coordinates": [[231.64810605286394, -121.20367868103735], [247.91119689797017, -137.60958085612216]]}, "properties": {"kind": "solid", "color": "white", "width": 0.12, "layer": null}}, {"type": "Feature", "geometry": {"type": "LineString", "coordinates": [[239.63575407783293, -113.35832199305266], [255.86246638419564, -129.72752617797167]]}, "properties": {"kind": "solid", "color": "white", "width": 0.12, "layer": null}}, {"type": "Feature", "geometry": {"type": "LineString", "coordinates": [[198.03368649624386, 107.83724243225551], [144.36519115102377, 161.6461433632678]]}, "properties": {"kind": "broken", "color": "white", "width": 0.12, "layer": null}}, {"type": "Feature", "geometry": {"type": "LineString", "coordinates": [[199.94908858443947, 110.87305571111783], [146.84353772092064, 164.11753940533833]]}, "properties": {"kind": "broken", "color": "white", "width": 0.12, "layer": null}}, {"type": "Feature", "geometry": {"type": "LineString", "coordinates": [[203.65639255212275, 111.97067273349089], [149.25105555639166, 166.5183430136186]]}, "properties": {"kind": "solid", "color": "white", "width": 0.12, "layer": null}}, {"type": "Feature", "geometry": {"type": "LineString", "coordinates": [[200.42007646822594, 100.62998936746698], [141.95663611408548, 159.24637966994396]]}, "properties": {"kind": "solid", "color": "white", "width": 0.12, "layer": null}}, {"type": "Feature", "geometry": {"type": "LineString", "coordinates": [[107.57073647053286, 199.17880235289965], [86.23984285647167, 220.58212989066396]]}, "properties": {"kind": "broken", "color": "white", "width": 0.12, "layer": null}}, {"type": "Feature", "geometry": {"type": "LineString", "coordinates": [[110.0501391497704, 201.64913888522713], [88.71890790679954, 223.0528051983972]]}, "properties": {"kind": "broken", "color": "white", "width": 0.12, "layer": null}}, {"type": "Feature", "geometry": {"type": "LineString", "coordinates": [[112.45624783269047, 204.051356626387], [91.12714252711807, 225.45288978305237]]}, "properties": {"kind": "solid", "color": "white", "width": 0.12, "layer": null}}, {"type": "Feature", "geometry": {"type": "LineString", "coordinates": [[105.16273823105145, 196.77848058472225], [83.83160823615314, 218.1820453060088]]}, "properties": {"kind": "solid", "color": "white", "width": 0.12, "layer": null}}, {"type": "Feature", "geometry": {"type": "LineString", "coordinates": [[-252.0304343814876, 106.61465151399801], [-206.02512682018548, 57.45538662485379]]}, "properties": {"kind": "solid", "color": "white", "width": 0.12, "layer": null}}, {"type": "Feature", "geometry": {"type": "LineString", "coordinates": [[-249.7669975064876, 108.73287093438162], [-203.89774166067113, 59.718984973772315]]}, "properties": {"kind": "solid", "color": "white", "width": 0.12, "layer": null}}, {"type": "Feature", "geometry": {"type": "LineString", "coordinates": [[-155.41389136437363, 95.78691852328024], [-126.34778898400303, 124.61422427224784]]}, "properties": {"kind": "broken", "color": "white", "width": 0.12, "layer": null}}, {"type": "Feature", "geometry": {"type": "LineString", "coordinates": [[-152.94948943908818, 93.30161707931615], [-123.88322046266346, 122.12908805564469]]}, "properties": {"kind": "broken", "color": "white", "width": 0.12, "layer": null}}, {"type": "Feature", "geometry": {"type": "LineString", "coordinates": [[-150.48465692089056, 90.81674269066791], [-121.4186519413239, 119.64395183904152]]}, "properties": {"kind": "broken", "color": "white", "width": 0.12, "layer": null}}, {"type": "Feature", "geometry": {"type": "LineString", "coordinates": [[-148.10247255762837, 88.39074077543435], [-113.61542265992173, 122.59445748884171]]}, "properties": {"kind": "solid", "color": "white", "width": 0.12, "layer": null}}, {"type": "Feature", "geometry": {"type": "LineString", "coordinates": [[-157.8080112536831, 98.20108297045091], [-128.74194126187575, 127.02835659694807]]}, "properties": {"kind": "solid", "color": "white", "width": 0.12, "layer": null}}, {"type": "Feature", "geometry": {"type": "LineString", "coordinates": [[-108.31892683265878, 143.00879871506254], [-82.29495494341359, 168.8199545594086]]}, "properties": {"kind": "broken", "color": "white", "width": 0.12, "layer": null}}, {"type": "Feature", "geometry": {"type": "LineString", "coordinates": [[-105.85413645892211, 140.52388253283064], [-79.83060502416977, 166.3346015245853]]}, "properties": {"kind": "broken", "color": "white", "width": 0.12, "layer": null}}, {"type": "Feature", "geometry": {"type": "LineString", "coordinates": [[-103.38934608518545, 138.03896635059874], [-77.36667078308803, 163.84883621088827]]}, "properties": {"kind": "broken", "color": "white", "width": 0.12, "layer": null}}, {"type": "Feature", "geometry": {"type": "LineString", "coordinates": [[-100.99497829355555, 135.62504777357347], [-75.04946131021896, 161.3583902921221]]}, "properties": {"kind": "solid", "color": "white", "width": 0.12, "layer": null}}, {"type": "Feature", "geometry": {"type": "LineString", "coordinates": [[-110.71329462428868, 145.4227172920878], [-84.68937641994481, 171.23381989055113]]}, "properties": {"kind": "solid", "color": "white", "width": 0.12, "layer": null}}, {"type": "Feature", "geometry": {"type": "LineString", "coordinates": [[-178.5692341389974, 85.05057749000204], [-249.69114168676572, 161.22368195345592]]}, "properties": {"kind": "solid", "color": "white", "width": 0.12, "layer": null}}, {"type": "Feature", "geometry": {"type": "LineString", "coordinates": [[-180.98055602705867, 82.79768425942778], [-252.10319740175566, 158.97157466742706]]}, "properties": {"kind": "solid", "color": "white", "width": 0.12, "layer": null}}, {"type": "Feature", "geometry": {"type": "LineString", "coordinates": [[-190.190709303496, 40.39467089912475], [-152.62637864537842, 0.26000529403508754], [-151.21265432420705, -1.0741614388281628], [-148.99128388478937, -2.865468698073061], [-146.61277137255743, -4.441671016130802], [-143.4058392498055, -6.225336147570121], [-141.9545107584748, -7.156890232459861], [-140.54411841167607, -8.19287774120219], [-139.91292441981687, -8.7040372699961], [-138.6062751285446, -9.868400655861043], [-137.3668069277141, -11.121010267875683], [-123.22556990997542, -26.34420031924559], [-119.03633829662844, -31.012805495140874], [-113.80360943260156, -36.52529757090286]]}, "properties": {"kind": "solid", "color": "white", "width": 0.12, "layer": null}}, {"type": "Feature", "geometry": {"type": "LineString", "coordinates": [[-188.01976476529347, 42.611711442221726], [-150.42877551500197, 2.4485631338958065], [-149.17275287812097, 1.2632233949137772], [-147.15809348580592, -0.3613926215421981], [-145.00071892161316, -1.7910503473317463], [-141.813597181665, -3.5636971323592714], [-140.19792504883551, -4.600737322895222], [-138.64999269965426, -5.7377532615947], [-137.90513133699176, -6.340963982967173], [-136.4711949142991, -7.618753730678135], [-135.1288416971857, -8.975339193175964], [-120.93612934757243, -24.253942979504238], [-116.75807802743904, -28.910088501796533], [-113.11697424036423, -32.745860676284984]]}, "properties": {"kind": "solid", "color": "white", "width": 0.12, "layer": null}}, {"type": "Feature", "geometry": {"type": "LineString", "coordinates": [[-90.54609023982566, -14.069144869517837], [-95.76872952572008, -8.890374635742019], [-111.03879225945931, 7.321549351696321], [-112.27601213383505, 8.764724238930956], [-113.34024110368699, 10.268685645755225], [-114.25983502410392, 11.864755242079754], [-115.0536659372757, 13.597521419937127], [-116.14669361630436, 16.38229925615717], [-117.13451403121063, 18.30640643417202], [-118.28703509963509, 20.11968766085366], [-119.60071290379263, 21.819113760383445], [-162.5875204766309, 67.99853433192075]]}, "properties": {"kind": "solid", "color": "white", "width": 0.12, "layer": null}}, {"type": "Feature", "geometry": {"type": "LineString", "coordinates": [[-94.35818384650469, -14.936417621910099], [-98.13230695120767, -11.193996343452206], [-113.49391148091465, 5.11511576061538], [-114.88120532372692, 6.733346825786464], [-116.12284051663117, 8.488017544572305], [-117.19594461498006, 10.350523143010118], [-118.09200985427552, 12.306445385444711], [-119.15804206909021, 15.022445118544498], [-120.00094094819228, 16.66426964367832], [-120.990700441492, 18.221475283817902], [-122.11915233045693, 19.681285738178527], [-164.88682046614156, 65.6252914742461]]}, "properties": {"kind": "solid", "color": "white", "width": 0.12, "layer": null}}, {"type": "Feature", "geometry": {"type": "LineString", "coordinates": [[12.29129961362594, -149.01348977766668], [43.908077676296635, -182.51732837328115], [80.36697561239438, -222.13716873606637]]}, "properties": {"kind": "broken", "color": "white", "width": 0.12, "layer": null}}, {"type": "Feature", "geometry": {"type": "LineString", "coordinates": [[14.847143574651863, -146.6222792402312], [46.46867878824825, -180.13115891930056], [82.94245413281848, -219.76716654390827]]}, "properties": {"kind": "broken", "color": "white", "width": 0.12, "layer": null}}, {"type": "Feature", "geometry": {"type": "LineString", "coordinates": [[17.402987535677774, -144.23106870279574], [49.02927990019986, -177.74498946532003], [85.51793265324258, -217.3971643517502]]}, "properties": {"kind": "broken", "color": "white", "width": 0.12, "layer": null}}, {"type": "Feature", "geometry": {"type": "LineString", "coordinates": [[13.996149450275391, -135.59610207095483], [18.662175420311222, -140.61151352116232], [51.51672098038128, -175.42699628145303], [88.01982607308312, -215.0948765079395]]}, "properties": {"kind": "solid", "color": "white", "width": 0.12, "layer": null}}, {"type": "Feature", "geometry": {"type": "LineString", "coordinates": [[7.179611691574095, -153.79591085253762], [38.78687545239496, -187.2896672812439], [75.21601857154619, -226.8771731203825]]}, "properties": {"kind": "broken", "color": "white", "width": 0.12, "layer": null}}, {"type": "Feature", "geometry": {"type": "LineString", "coordinates": [[4.696791843720335, -156.11880108890352], [36.299434372212765, -189.60766046511006], [72.71412515170564, -229.17946096419323]]}, "properties": {"kind": "solid", "color": "white", "width": 0.12, "layer": null}}, {"type": "Feature", "geometry": {"type": "LineString", "coordinates": [[9.735455652600017, -151.40470031510216], [41.3474765643458, -184.90349782726253], [77.79149709197029, -224.50717092822444]]}, "properties": {"kind": "solid", "color": "white", "width": 0.12, "layer": null}}, {"type": "Feature", "geometry": {"type": "LineString", "coordinates": [[5.076727806163453, -111.55196251417269], [-28.97653424258818, -75.2544401269413], [-32.466476111097535, -71.59633361714351], [-33.9037374736291, -70.2098937914692], [-35.49302753887049, -68.91487401757128], [-37.195345485061154, -67.7495993518555], [-39.69861067320341, -66.35251422549896], [-41.25433469781392, -65.38214878037999], [-42.67829850029987, -64.32124684798012], [-44.01068956281685, -63.14570298055214], [-50.42816877685402, -56.47284971324317]]}, "properties": {"kind": "solid", "color": "white", "width": 0.12, "layer": null}}, {"type": "Feature", "geometry": {"type": "LineString", "coordinates": [[2.6726973273271857, -113.81263770356875], [-31.37375418904772, -77.52237469287108], [-34.806870413032314, -73.92383200046382], [-36.0953943016971, -72.68087029415945], [-37.47076843431972, -71.560158136443], [-38.9350959417006, -70.55779324304571], [-41.37694800776885, -69.19498309475348], [-43.11652922363362, -68.10993878474108], [-44.75926391901708, -66.88604502444319], [-46.29541180580367, -65.53073029847742], [-49.91148318649707, -61.77076272823534]]}, "properties": {"kind": "solid", "color": "white", "width": 0.12, "layer": null}}, {"type": "Feature", "geometry": {"type": "LineString", "coordinates": [[-7.612979172465904, -154.02231922736308], [-6.1005781322797015, -155.59943302623353], [-3.3696890109979662, -158.7064254251289], [56.36748982346334, -223.17622735925792]]}, "properties": {"kind": "solid", "color": "white", "width": 0.12, "layer": null}}, {"type": "Feature", "geometry": {"type": "LineString", "coordinates": [[-4.496088511019471, -152.79373864588044], [-3.8165636043760816, -153.50233912846903], [-1.068128516352298, -156.629293958235], [58.64139312997408, -221.06924758891375]]}, "properties": {"kind": "solid", "color": "white", "width": 0.12, "layer": null}}, {"type": "Feature", "geometry": {"type": "LineString", "coordinates": [[96.93195208569526, -210.09099461487227], [23.29266914657357, -131.48781335897723], [22.410512387824834, -130.50270176158224], [21.0239319234959, -128.83020202297635]]}, "properties": {"kind": "solid", "color": "white", "width": 0.12, "layer": null}}, {"type": "Feature", "geometry": {"type": "LineString", "coordinates": [[94.53802803873879, -212.5087281814672], [20.785299130959533, -133.78445375788726], [19.834409268761195, -132.72258734717636], [18.39515163280169, -130.98654816167274]]}, "properties": {"kind": "solid", "color": "white", "width": 0.12, "layer": null}}, {"type": "Feature", "geometry": {"type": "LineString", "coordinates": [[223.95250830019606, 82.93280100590367], [222.6492384412703, 84.21544223609769], [213.87571572570891, 92.98456916854902]]}, "properties": {"kind": "broken", "color": "white", "width": 0.12, "layer": null}}, {"type": "Feature", "geometry": {"type": "LineString", "coordinates": [[226.25323229463356, 85.29861104821684], [224.9730889422729, 86.55849182659225], [216.2121584033855, 95.3150328914064]]}, "properties": {"kind": "broken", "color": "white", "width": 0.12, "layer": null}}, {"type": "Feature", "geometry": {"type": "LineString", "coordinates": [[228.48423738014878, 87.59272987712662], [227.22651973112056, 88.83053991434792], [218.4777997877991, 97.57487650144992]]}, "properties": {"kind": "solid", "color": "white", "width": 0.12, "layer": null}}, {"type": "Feature", "geometry": {"type": "LineString", "coordinates": [[221.72150321468084, 80.6386821769939], [220.39580765242266, 81.94339414834201], [211.61007434129527, 90.7247255585055]]}, "properties": {"kind": "solid", "color": "white", "width": 0.12, "layer": null}}, {"type": "Feature", "geometry": {"type": "LineString", "coordinates": [[144.2794395030075, 9.983561589678331], [147.00135214736736, 12.804680749703506], [166.87288360184883, 34.92484373359918]]}, "properties": {"kind": "solid", "color": "white", "width": 0.12, "layer": null}}, {"type": "Feature", "geometry": {"type": "LineString", "coordinates": [[142.04853383956853, 12.136015984279068], [144.7321258096353, 14.917417782802072], [164.56677462181744, 36.9965245420778]]}, "properties": {"kind": "solid", "color": "white", "width": 0.12, "layer": null}}, {"type": "Feature", "geometry": {"type": "LineString", "coordinates": [[237.37684459805212, 87.85593609813321], [237.59859464375825, 90.42018951627162], [237.79212537025955, 98.1344085296437], [237.94065681284857, 100.10848008581635], [238.06596679535232, 100.92708562463078], [238.5000975383962, 102.78840079032368], [239.10646435956872, 104.54643861358282], [239.9121131155525, 106.2796130797224], [240.3429393454838, 107.0455611906029], [240.81262027375152, 107.78831793044559], [241.95625873800725, 109.32078963364162], [243.2589111247093, 110.7369976553063], [251.59801086798035, 118.90769618796101]]}, "properties": {"kind": "solid", "color": "white", "width": 0.12, "layer": null}}, {"type": "Feature", "geometry": {"type": "LineString", "coordinates": [[233.59185070759835, 89.35415039121126], [233.70281435113316, 90.63730188422282], [233.89579871618048, 98.3297426921774], [234.06289123747683, 100.55050206669566], [234.23367608164784, 101.66617869987834], [234.74769562018906, 103.87001332315558], [235.48514690261504, 106.00810400036134], [236.4390512468993, 108.06021745597556], [236.99299743358804, 109.04505543877737], [237.59690207332048, 110.00007450467363], [238.95037392750353, 111.8137222460144], [240.45710278135016, 113.45179661725439], [248.86856532514543, 121.69339664362717]]}, "properties": {"kind": "solid", "color": "white", "width": 0.12, "layer": null}}, {"type": "Feature", "geometry": {"type": "LineString", "coordinates": [[205.31940664527303, 80.92420920929058], [205.23343349497867, 87.87789127342728]]}, "properties": {"kind": "solid", "color": "white", "width": 0.12, "layer": null}}, {"type": "Feature", "geometry": {"type": "LineString", "coordinates": [[201.41970468959084, 80.87599451393253], [201.30761598578158, 89.94195530055175]]}, "properties": {"kind": "solid", "color": "white", "width": 0.12, "layer": null}}, {"type": "Feature", "geometry": {"type": "LineString", "coordinates": [[120.52847445712722, -0.6344861995620263], [125.59607229178903, -5.9220831088311146], [128.054056369535, -8.403844688472166], [129.4019979919917, -9.67522766925951]]}, "properties": {"kind": "broken", "color": "white", "width": 0.12, "layer": null}}, {"type": "Feature", "geometry": {"type": "LineString", "coordinates": [[118.2692898739007, -3.046506524553511], [123.23233934049635, -8.225016318804402], [125.74891911107542, -10.76594042131215], [127.03920394657088, -11.982941330614967]]}, "properties": {"kind": "broken", "color": "white", "width": 0.12, "layer": null}}, {"type": "Feature", "geometry": {"type": "LineString", "coordinates": [[116.07856542955983, -5.385435324545253], [120.9402346604552, -10.458163673930247], [123.51363449681125, -13.0564574955809], [124.74800972070827, -14.22072427495965]]}, "properties": {"kind": "solid", "color": "white", "width": 0.12, "layer": null}}, {"type": "Feature", "geometry": {"type": "LineString", "coordinates": [[122.71919890146809, 1.7044426004297224], [127.88817697183057, -3.688935753705671], [130.28934098379892, -6.113327614203187], [131.69319221785432, -7.437444724914832]]}, "properties": {"kind": "solid", "color": "white", "width": 0.12, "layer": null}}, {"type": "Feature", "geometry": {"type": "LineString", "coordinates": [[30.661073892491206, -103.3360738924912], [82.12801705811009, -51.96897975011858]]}, "properties": {"kind": "solid", "color": "white", "width": 0.12, "layer": null}}, {"type": "Feature", "geometry": {"type": "LineString", "coordinates": [[28.118935862156874, -100.78704738685765], [79.58490553712967, -49.42092484649962]]}, "properties": {"kind": "solid", "color": "white", "width": 0.12, "layer": null}}, {"type": "Feature", "geometry": {"type": "LineString", "coordinates": [[127.97065360632385, 8.875283143172748], [131.35693373011688, 8.94782310402803]]}, "properties": {"kind": "solid", "color": "white", "width": 0.12, "layer": null}}, {"type": "Feature", "geometry": {"type": "LineString", "coordinates": [[123.89956330046887, 12.688968100504182], [131.27340816579436, 12.846928575813143]]}, "properties": {"kind": "solid", "color": "white", "width": 0.12, "layer": null}}, {"type": "Feature", "geometry": {"type": "LineString", "coordinates": [[118.61195837569254, -23.884553815226635], [126.93244312326385, -23.87932885573788]]}, "properties": {"kind": "solid", "color": "white", "width": 0.12, "layer": null}}, {"type": "Feature", "geometry": {"type": "LineString", "coordinates": [[118.6095093191043, -19.984554584185453], [124.15967904466721, -19.981069281002817]]}, "properties": {"kind": "solid", "color": "white", "width": 0.12, "layer": null}}, {"type": "Feature", "geometry": {"type": "LineString", "coordinates": [[-88.69641178742889, -223.14365723160688], [-32.71029527765141, -166.37233750821161]]}, "properties": {"kind": "solid", "color": "white", "width": 0.12, "layer": null}}, {"type": "Feature", "geometry": {"type": "LineString", "coordinates": [[-91.2596606078722, -220.61586066453586], [-35.24935571769517, -163.82001331960046]]}, "properties": {"kind": "solid", "color": "white", "width": 0.12, "layer": null}}, {"type": "Feature", "geometry": {"type": "LineString", "coordinates": [[173.09121110885164, 39.53158650028546], [178.59835813738664, 44.90154126747759]]}, "properties": {"kind": "solid", "color": "white", "width": 0.12, "layer": null}}, {"type": "Feature", "geometry": {"type": "LineString", "coordinates": [[170.36849414656177, 42.32386376862022], [175.87564117509677, 47.693818535812355]]}, "properties": {"kind": "solid", "color": "white", "width": 0.12, "layer": null}}, {"type": "Feature", "geometry": {"type": "LineString", "coordinates": [[178.6102605296602, 44.913286632877956], [184.3766447669758, 50.671971912044256]]}, "properties": {"kind": "solid", "color": "white", "width": 0.12, "layer": null}}, {"type": "Feature", "geometry": {"type": "LineString", "coordinates": [[175.85438690317972, 47.672844669026], [181.6207711404953, 53.4315299481923]]}, "properties": {"kind": "solid", "color": "white", "width": 0.12, "layer": null}}, {"type": "Feature", "geometry": {"type": "LineString", "coordinates": [[190.0955443175121, 56.34133583366082], [205.17428215390288, 69.49142828194574]]}, "properties": {"kind": "solid", "color": "white", "width": 0.12, "layer": null}}, {"type": "Feature", "geometry": {"type": "LineString", "coordinates": [[187.72939490726563, 59.054514222265276], [202.80813274365642, 72.20460667055019]]}, "properties": {"kind": "solid", "color": "white", "width": 0.12, "layer": null}}, {"type": "Feature", "geometry": {"type": "LineString", "coordinates": [[82.15216359441514, -51.962219640054684], [108.92321926932239, -24.596318986581398]]}, "properties": {"kind": "solid", "color": "white", "width": 0.12, "layer": null}}, {"type": "Feature", "geometry": {"type": "LineString", "coordinates": [[79.9361807828304, -49.79440503110838], [106.70723645773765, -22.4285043776351]]}, "properties": {"kind": "solid", "color": "white", "width": 0.12, "layer": null}}, {"type": "Feature", "geometry": {"type": "LineString", "coordinates": [[-215.70110548466647, -170.5123552028324], [-160.5659281318478, -223.4912337421066]]}, "properties": {"kind": "solid", "color": "white", "width": 0.12, "layer": null}}, {"type": "Feature", "geometry": {"type": "LineString", "coordinates": [[-212.71899981940655, -168.1078603195024], [-157.9330374142701, -220.7511814671868]]}, "properties": {"kind": "solid", "color": "white", "width": 0.12, "layer": null}}, {"type": "Feature", "geometry": {"type": "LineString", "coordinates": [[167.29103838558493, 218.74435329898748], [138.919753158862, 190.46257539941905]]}, "properties": {"kind": "broken", "color": "white", "width": 0.12, "layer": null}}, {"type": "Feature", "geometry": {"type": "LineString", "coordinates": [[164.749478965974, 221.29395634977539], [136.37851140329755, 193.01249511206902]]}, "properties": {"kind": "broken", "color": "white", "width": 0.12, "layer": null}}, {"type": "Feature", "geometry": {"type": "LineString", "coordinates": [[162.2079195463631, 223.8435594005633], [133.8372696477331, 195.56241482471899]]}, "properties": {"kind": "broken", "color": "white", "width": 0.12, "layer": null}}, {"type": "Feature", "geometry": {"type": "LineString", "coordinates": [[159.66636012675215, 226.3931624513512], [130.93424994008365, 197.75169794272534]]}, "properties": {"kind": "broken", "color": "white", "width": 0.12, "layer": null}}, {"type": "Feature", "geometry": {"type": "LineString", "coordinates": [[157.1953995799082, 228.87194319517278], [126.13988685198626, 197.91440614637412]]}, "properties": {"kind": "solid", "color": "white", "width": 0.12, "layer": null}}, {"type": "Feature", "geometry": {"type": "LineString", "coordinates": [[169.76199893242887, 216.2655725551659], [140.78811850179488, 187.38310055294522]]}, "properties": {"kind": "solid", "color": "white", "width": 0.12, "layer": null}}, {"type": "Feature", "geometry": {"type": "LineString", "coordinates": [[-121.4626846409525, -72.90142047872999], [-189.99520246284297, -141.78106338287606]]}, "properties": {"kind": "broken", "color": "white", "width": 0.12, "layer": null}}, {"type": "Feature", "geometry": {"type": "LineString", "coordinates": [[-124.10087815918065, -70.27716245442579], [-192.70509747693382, -139.22887003075493]]}, "properties": {"kind": "broken", "color": "white", "width": 0.12, "layer": null}}, {"type": "Feature", "geometry": {"type": "LineString", "coordinates": [[-126.7380863389771, -67.65191410083743], [-195.34483567966106, -136.60616451495443]]}, "properties": {"kind": "broken", "color": "white", "width": 0.12, "layer": null}}, {"type": "Feature", "geometry": {"type": "LineString", "coordinates": [[-129.37631254237644, -65.02768892725858], [-197.98405037208897, -133.98293283721472]]}, "properties": {"kind": "broken", "color": "white", "width": 0.12, "layer": null}}, {"type": "Feature", "geometry": {"type": "LineString", "coordinates": [[-131.93989104165567, -62.47021791668866], [-200.55302007001288, -131.43088033233047]]}, "properties": {"kind": "solid", "color": "white", "width": 0.12, "layer": null}}, {"type": "Feature", "geometry": {"type": "LineString", "coordinates": [[-118.89688871948425, -75.45666283561253], [-187.5074416007369, -144.4147360556685]]}, "properties": {"kind": "solid", "color": "white", "width": 0.12, "layer": null}}, {"type": "Feature", "geometry": {"type": "LineString", "coordinates": [[-252.2242803115936, -135.40784139513391], [-241.7224675504621, -145.506409703463], [-230.9468810656348, -155.73666524589794]]}, "properties": {"kind": "solid", "color": "white", "width": 0.12, "layer": null}}, {"type": "Feature", "geometry": {"type": "LineString", "coordinates": [[-249.5903761988053, -132.66876324279198], [-239.09730520277213, -142.75892544886153], [-227.9532096079518, -153.33904059014543]]}, "properties": {"kind": "solid", "color": "white", "width": 0.12, "layer": null}}, {"type": "Feature", "geometry": {"type": "LineString", "coordinates": [[-223.11501799017276, -171.53956938063635], [-234.07134762400187, -182.4193671097071], [-247.40254452149884, -195.7981408738685]]}, "properties": {"kind": "broken", "color": "white", "width": 0.12, "layer": null}}, {"type": "Feature", "geometry": {"type": "LineString", "coordinates": [[-225.39299722884797, -169.1510027896572], [-236.40279633632758, -180.08389649862633], [-249.74014962960686, -193.46884862974213]]}, "properties": {"kind": "broken", "color": "white", "width": 0.12, "layer": null}}, {"type": "Feature", "geometry": {"type": "LineString", "coordinates": [[-227.71887484752048, -166.81], [-238.73424504865062, -177.74842588754288], [-252.07775473771486, -191.13955638561575]]}, "properties": {"kind": "broken", "color": "white", "width": 0.12, "layer": null}}, {"type": "Feature", "geometry": {"type": "LineString", "coordinates": [[-230.04341439398814, -164.46766848480948], [-241.06569376097366, -175.41295527645943], [-254.41535984582288, -188.81026414148937]]}, "properties": {"kind": "broken", "color": "white", "width": 0.12, "layer": null}}, {"type": "Feature", "geometry": {"type": "LineString", "coordinates": [[-232.34759249361474, -162.24604604627086], [-243.32649251232465, -173.1482565020829], [-256.6821284355034, -186.55155651082137]]}, "properties": {"kind": "solid", "color": "white", "width": 0.12, "layer": null}}, {"type": "Feature", "geometry": {"type": "LineString", "coordinates": [[-220.81452248239358, -173.76484868746553], [-231.81054887265628, -184.68406588408902], [-245.13577593181833, -198.0568485045365]]}, "properties": {"kind": "solid", "color": "white", "width": 0.12, "layer": null}}, {"type": "Feature", "geometry": {"type": "LineString", "coordinates": [[248.86704210365235, 56.42190079788475], [238.79957027587074, 66.55712964774644], [238.04772867693487, 67.33302571888889]]}, "properties": {"kind": "broken", "color": "white", "width": 0.12, "layer": null}}, {"type": "Feature", "geometry": {"type": "LineString", "coordinates": [[251.44524593373987, 58.98286856784673], [241.39363951809602, 69.10212522671901], [240.70524959024178, 69.81253954961909]]}, "properties": {"kind": "broken", "color": "white", "width": 0.12, "layer": null}}, {"type": "Feature", "geometry": {"type": "LineString", "coordinates": [[253.95250233104096, 61.47336320973126], [243.91632474053947, 71.5770872029674], [241.17285927653768, 74.40832729110139], [239.4416411881681, 76.09196142399273]]}, "properties": {"kind": "solid", "color": "white", "width": 0.12, "layer": null}}, {"type": "Feature", "geometry": {"type": "LineString", "coordinates": [[246.35978570635126, 53.93140615600022], [236.2768850534273, 64.08216767149803], [233.59779923439095, 66.84696834784506], [231.8431034034914, 68.55343491817004]]}, "properties": {"kind": "solid", "color": "white", "width": 0.12, "layer": null}}, {"type": "Feature", "geometry": {"type": "LineString", "coordinates": [[-250.89762953092742, 134.74264718172228], [-224.1026480584243, 106.11163309973739], [-222.12061567469402, 103.9347662733438], [-197.819586048969, 78.16239679359987]]}, "properties": {"kind": "broken", "color": "white", "width": 0.12, "layer": null}}, {"type": "Feature", "geometry": {"type": "LineString", "coordinates": [[-248.34217522041092, 137.13422684104012], [-221.53081159969932, 108.48570808130304], [-219.55318411073776, 106.31367915229927], [-194.21384712912015, 79.44013654443114]]}, "properties": {"kind": "broken", "color": "white", "width": 0.12, "layer": null}}, {"type": "Feature", "geometry": {"type": "LineString", "coordinates": [[-245.78672090989446, 139.52580650035793], [-218.9589751409727, 110.859783062867], [-216.98575254678101, 108.69259203125429], [-189.8898970540407, 79.9561800403234], [-189.36491688407025, 79.38780536779333]]}, "properties": {"kind": "broken", "color": "white", "width": 0.12, "layer": null}}, {"type": "Feature", "geometry": {"type": "LineString", "coordinates": [[-243.30427957967845, 141.84905531226667], [-216.4606197239233, 113.1660273306712], [-214.49167617036517, 111.00353597080982], [-187.40415384983157, 82.27596169566127], [-184.58341265974133, 79.22205996390649]]}, "properties": {"kind": "solid", "color": "white", "width": 0.12, "layer": null}}, {"type": "Feature", "geometry": {"type": "LineString", "coordinates": [[-256.00853815196035, 129.95948786308665], [-229.24632097587752, 101.36348313660949], [-227.2554788026075, 99.17694051543376], [-202.90206144219187, 73.34901141227279]]}, "properties": {"kind": "broken", "color": "white", "width": 0.12, "layer": null}}, {"type": "Feature", "geometry": {"type": "LineString", "coordinates": [[-258.4909794821764, 127.6362390511779], [-231.7446763929244, 99.05723886880254], [-229.7495551790225, 96.86599657587736], [-204.50965837744758, 70.09791489294382]]}, "properties": {"kind": "solid", "color": "white", "width": 0.12, "layer": null}}, {"type": "Feature", "geometry": {"type": "LineString", "coordinates": [[-253.45308384144388, 132.35106752240446], [-226.67448451715092, 103.73755811817344], [-224.68804723865077, 101.55585339438878], [-200.36082374558043, 75.75570410293632]]}, "properties": {"kind": "solid", "color": "white", "width": 0.12, "layer": null}}, {"type": "Feature", "geometry": {"type": "LineString", "coordinates": [[131.3641619039525, 8.61040051512355], [135.5887731025895, 8.700898973542474]]}, "properties": {"kind": "solid", "color": "white", "width": 0.12, "layer": null}}, {"type": "Feature", "geometry": {"type": "LineString", "coordinates": [[131.28063633962998, 12.509505986908662], [135.50524753826699, 12.600004445327587]]}, "properties": {"kind": "solid", "color": "white", "width": 0.12, "layer": null}}, {"type": "Feature", "geometry": {"type": "LineString", "coordinates": [[135.59600127642508, 8.363476384637993], [139.82061247506212, 8.453974843056917]]}, "properties": {"kind": "solid", "color": "white", "width": 0.12, "layer": null}}, {"type": "Feature", "geometry": {"type": "LineString", "coordinates": [[135.51247571210257, 12.262581856423106], [139.7370869107396, 12.35308031484203]]}, "properties": {"kind": "solid", "color": "white", "width": 0.12, "layer": null}}, {"type": "Feature", "geometry": {"type": "LineString", "coordinates": [[139.82516354747713, 8.241523583376319], [144.04977474611414, 8.332022041795243]]}, "properties": {"kind": "solid", "color": "white", "width": 0.12, "layer": null}}, {"type": "Feature", "geometry": {"type": "LineString", "coordinates": [[139.74431508457522, 12.01565772593755], [143.96892628321223, 12.106156184356474]]}, "properties": {"kind": "solid", "color": "white", "width": 0.12, "layer": null}}, {"type": "Feature", "geometry": {"type": "LineString", "coordinates": [[170.55871290348801, 36.61988574874767], [173.31228641775553, 39.30486313234374]]}, "properties": {"kind": "solid", "color": "white", "width": 0.12, "layer": null}}, {"type": "Feature", "geometry": {"type": "LineString", "coordinates": [[167.83599594119815, 39.41216301708244], [170.58956945546566, 42.09714040067851]]}, "properties": {"kind": "solid", "color": "white", "width": 0.12, "layer": null}}, {"type": "Feature", "geometry": {"type": "LineString", "coordinates": [[167.90985927238552, 33.82751308560028], [170.663432786653, 36.512490469196344]]}, "properties": {"kind": "solid", "color": "white", "width": 0.12, "layer": null}}, {"type": "Feature", "geometry": {"type": "LineString", "coordinates": [[165.30349773583453, 36.50046226554466], [168.057071250102, 39.185439649140726]]}, "properties": {"kind": "solid", "color": "white", "width": 0.12, "layer": null}}, {"type": "Feature", "geometry": {"type": "LineString", "coordinates": [[205.60356253384765, 77.39451686267967], [205.6219247979488, 78.70018537542094], [205.59438562932755, 80.9276089634504]]}, "properties": {"kind": "solid", "color": "white", "width": 0.12, "layer": null}}, {"type": "Feature", "geometry": {"type": "LineString", "coordinates": [[201.70394815139915, 77.44935907453078], [201.72158575342826, 78.70349971224552], [201.69468367364536, 80.87939426809238]]}, "properties": {"kind": "solid", "color": "white", "width": 0.12, "layer": null}}, {"type": "Feature", "geometry": {"type": "LineString", "coordinates": [[205.83043710140169, 73.97057265955299], [205.87853534286646, 77.3906497836388]]}, "properties": {"kind": "solid", "color": "white", "width": 0.12, "layer": null}}, {"type": "Feature", "geometry": {"type": "LineString", "coordinates": [[201.93082271895318, 74.02541487140417], [201.97892096041795, 77.44549199548999]]}, "properties": {"kind": "solid", "color": "white", "width": 0.12, "layer": null}}, {"type": "Feature", "geometry": {"type": "LineString", "coordinates": [[206.13230425323357, 70.54557379850617], [206.18040249469834, 73.96565092259199]]}, "properties": {"kind": "solid", "color": "white", "width": 0.12, "layer": null}}, {"type": "Feature", "geometry": {"type": "LineString", "coordinates": [[202.33267998315554, 70.59900979979706], [202.38077822462031, 74.01908692388288]]}, "properties": {"kind": "solid", "color": "white", "width": 0.12, "layer": null}}, {"type": "Feature", "geometry": {"type": "LineString", "coordinates": [[114.87067468632473, -24.224403270815902], [118.61217031328191, -24.22205374868212]]}, "properties": {"kind": "solid", "color": "white", "width": 0.12, "layer": null}}, {"type": "Feature", "geometry": {"type": "LineString", "coordinates": [[114.8682256297365, -20.32440403977472], [118.60972125669367, -20.32205451764094]]}, "properties": {"kind": "solid", "color": "white", "width": 0.12, "layer": null}}, {"type": "Feature", "geometry": {"type": "LineString", "coordinates": [[111.44877598878466, -24.741746787684654], [114.09704966943619, -24.56238914551889], [114.8708866239141, -24.56190320427139]]}, "properties": {"kind": "solid", "color": "white", "width": 0.12, "layer": null}}, {"type": "Feature", "geometry": {"type": "LineString", "coordinates": [[111.18524730960021, -20.850660482390555], [113.96391146528089, -20.66247198247283], [114.86843756732587, -20.661903973230206]]}, "properties": {"kind": "solid", "color": "white", "width": 0.12, "layer": null}}, {"type": "Feature", "geometry": {"type": "LineString", "coordinates": [[107.73018998326543, -25.206579463332947], [111.46313492322741, -24.95376110560132]]}, "properties": {"kind": "solid", "color": "white", "width": 0.12, "layer": null}}, {"type": "Feature", "geometry": {"type": "LineString", "coordinates": [[107.47510773610612, -21.44020746269571], [111.2080526760681, -21.187389104964083]]}, "properties": {"kind": "solid", "color": "white", "width": 0.12, "layer": null}}, {"type": "Feature", "geometry": {"type": "LineString", "coordinates": [[184.54152609505581, 50.50687014919779], [187.42471821371362, 53.38621278878094]]}, "properties": {"kind": "solid", "color": "white", "width": 0.12, "layer": null}}, {"type": "Feature", "geometry": {"type": "LineString", "coordinates": [[181.78565246857534, 53.26642818534584], [184.66884458723314, 56.14577082492899]]}, "properties": {"kind": "solid", "color": "white", "width": 0.12, "layer": null}}, {"type": "Feature", "geometry": {"type": "LineString", "coordinates": [[187.61315401723363, 53.19752505981355], [190.49634613589143, 56.0768676993967]]}, "properties": {"kind": "solid", "color": "white", "width": 0.12, "layer": null}}, {"type": "Feature", "geometry": {"type": "LineString", "coordinates": [[184.92794381707316, 55.88632519759883], [187.81113593573096, 58.76566783718198]]}, "properties": {"kind": "solid", "color": "white", "width": 0.12, "layer": null}}]}