{"type": "FeatureCollection", "features": [{"type": "Feature", "geometry": {"type": "Point", "coordinates": [-166.50932091527386, -95.53318419929143]}, "properties": {"id": "tree6968189659", "kind": "tree", "osm_id": 6968189659, "tags": {}}}, {"type": "Feature", "geometry": {"type": "Point", "coordinates": [-66.31420555374781, -79.68631942600226]}, "properties": {"id": "tree11190333730", "kind": "tree", "osm_id": 11190333730, "tags": {"leaf_type": "broadleaved"}}}, {"type": "Feature", "geometry": {"type": "Point", "coordinates": [-70.89735769810453, -74.89952587805993]}, "properties": {"id": "tree11190333731", "kind": "tree", "osm_id": 11190333731, "tags": {"leaf_type": "broadleaved"}}}, {"type": "Feature", "geometry": {"type": "Point", "coordinates": [148.9906928987292, 167.94875732895434]}, "properties": {"id": "tree11663122094", "kind": "tree", "osm_id": 11663122094, "tags": {"leaf_type": "broadleaved"}}}, {"type": "Feature", "geometry": {"type": "Point", "coordinates": [148.9320020241406, 175.16775571055607]}, "properties": {"id": "tree11663123335", "kind": "tree", "osm_id": 11663123335, "tags": {"leaf_type": "broadleaved"}}}, {"type": "Feature", "geometry": {"type": "Point", "coordinates": [149.4251679182261, 187.93984225972656]}, "properties": {"id": "tree11663125782", "kind": "tree", "osm_id": 11663125782, "tags": {"leaf_type": "broadleaved"}}}, {"type": "Feature", "geometry": {"type": "Point", "coordinates": [149.7514501791756, 182.24239227538015]}, "properties": {"id": "tree11663150804", "kind": "tree", "osm_id": 11663150804, "tags": {}}}, {"type": "Feature", "geometry": {"type": "Point", "coordinates": [231.16997448677864, 95.18340154245053]}, "properties": {"id": "tree12400308069", "kind": "tree", "osm_id": 12400308069, "tags": {}}}, {"type": "Feature", "geometry": {"type": "Point", "coordinates": [226.6201923921383, 99.88116010299937]}, "properties": {"id": "tree12400308070", "kind": "tree", "osm_id": 12400308070, "tags": {}}}, {"type": "Feature", "geometry": {"type": "Point", "coordinates": [222.4970298703938, 101.78018432750721]}, "properties": {"id": "tree12400308071", "kind": "tree", "osm_id": 12400308071, "tags": {}}}, {"type": "Feature", "geometry": {"type": "Point", "coordinates": [231.22869158091024, 89.7302828630343]}, "properties": {"id": "tree12400308072", "kind": "tree", "osm_id": 12400308072, "tags": {}}}, {"type": "Feature", "geometry": {"type": "Point", "coordinates": [114.31088805569935, 12.506426801065912]}, "properties": {"id": "tree12590292252", "kind": "tree", "osm_id": 12590292252, "tags": {}}}, {"type": "Feature", "geometry": {"type": "Point", "coordinates": [122.85827248603215, 12.839751177203341]}, "properties": {"id": "tree12590292253", "kind": "tree", "osm_id": 12590292253, "tags": {}}}, {"type": "Feature", "geometry": {"type": "Point", "coordinates": [128.30283967899433, 13.00643777967672]}, "properties": {"id": "tree12590292254", "kind": "tree", "osm_id": 12590292254, "tags": {}}}, {"type": "Feature", "geometry": {"type": "Point", "coordinates": [137.93745463858983, 13.839576039693512]}, "properties": {"id": "tree12590292255", "kind": "tree", "osm_id": 12590292255, "tags": {}}}, {"type": "Feature", "geometry": {"type": "Point", "coordinates": [129.13932798464836, 4.654627554788954]}, "properties": {"id": "tree12590292256", "kind": "tree", "osm_id": 12590292256, "tags": {}}}, {"type": "Feature", "geometry": {"type": "Point", "coordinates": [133.07850208180642, 4.077179003865009]}, "properties": {"id": "tree12590292257", "kind": "tree", "osm_id": 12590292257, "tags": {}}}, {"type": "Feature", "geometry": {"type": "Point", "coordinates": [139.28432050158938, -4.863155304520371]}, "properties": {"id": "tree12590292258", "kind": "tree", "osm_id": 12590292258, "tags": {}}}, {"type": "Feature", "geometry": {"type": "Point", "coordinates": [145.3980424647578, -8.117137206183358]}, "properties": {"id": "tree12590292259", "kind": "tree", "osm_id": 12590292259, "tags": {}}}, {"type": "Feature", "geometry": {"type": "Point", "coordinates": [145.0633854284482, -2.1087166896210574]}, "properties": {"id": "tree12590292260", "kind": "tree", "osm_id": 12590292260, "tags": {}}}, {"type": "Feature", "geometry": {"type": "Point", "coordinates": [145.89999048978586, -15.213956978931511]}, "properties": {"id": "tree12590292261", "kind": "tree", "osm_id": 12590292261, "tags": {}}}, {"type": "Feature", "geometry": {"type": "Point", "coordinates": [149.33684809890323, 9.586146362598766]}, "properties": {"id": "tree12590292262", "kind": "tree", "osm_id": 12590292262, "tags": {}}}, {"type": "Feature", "geometry": {"type": "Point", "coordinates": [154.36315825278842, 13.92875649807742]}, "properties": {"id": "tree12590292263", "kind": "tree", "osm_id": 12590292263, "tags": {}}}, {"type": "Feature", "geometry": {"type": "Point", "coordinates": [143.7248154709631, 19.270596104782275]}, "properties": {"id": "tree12590292264", "kind": "tree", "osm_id": 12590292264, "tags": {}}}, {"type": "Feature", "geometry": {"type": "Point", "coordinates": [148.75109833433586, 24.77934823111532]}, "properties": {"id": "tree12590292265", "kind": "tree", "osm_id": 12590292265, "tags": {}}}, {"type": "Feature", "geometry": {"type": "Point", "coordinates": [158.3856241736069, 28.866615845800677]}, "properties": {"id": "tree12590292266", "kind": "tree", "osm_id": 12590292266, "tags": {}}}, {"type": "Feature", "geometry": {"type": "Point", "coordinates": [163.24486625457527, 23.524665198095068]}, "properties": {"id": "tree12590292267", "kind": "tree", "osm_id": 12590292267, "tags": {}}}, {"type": "Feature", "geometry": {"type": "Point", "coordinates": [167.3010053171699, 27.92279336616874]}, "properties": {"id": "tree12590292268", "kind": "tree", "osm_id": 12590292268, "tags": {}}}, {"type": "Feature", "geometry": {"type": "Point", "coordinates": [162.45848197078874, 33.620138531016785]}, "properties": {"id": "tree12590292269", "kind": "tree", "osm_id": 12590292269, "tags": {}}}, {"type": "Feature", "geometry": {"type": "Point", "coordinates": [162.38310039368773, 38.584586273134875]}, "properties": {"id": "tree12590292270", "kind": "tree", "osm_id": 12590292270, "tags": {}}}, {"type": "Feature", "geometry": {"type": "Point", "coordinates": [170.2361044694216, 46.92548586783559]}, "properties": {"id": "tree12590292271", "kind": "tree", "osm_id": 12590292271, "tags": {}}}, {"type": "Feature", "geometry": {"type": "Point", "coordinates": [175.07837819447175, 51.44580472308816]}, "properties": {"id": "tree12590292272", "kind": "tree", "osm_id": 12590292272, "tags": {}}}, {"type": "Feature", "geometry": {"type": "Point", "coordinates": [175.3714773673329, 35.663971262861246]}, "properties": {"id": "tree12590292273", "kind": "tree", "osm_id": 12590292273, "tags": {}}}, {"type": "Feature", "geometry": {"type": "Point", "coordinates": [180.4312133715853, 39.76226514581994]}, "properties": {"id": "tree12590292274", "kind": "tree", "osm_id": 12590292274, "tags": {}}}, {"type": "Feature", "geometry": {"type": "Point", "coordinates": [184.76332035989924, 44.29368388856914]}, "properties": {"id": "tree12590292275", "kind": "tree", "osm_id": 12590292275, "tags": {}}}, {"type": "Feature", "geometry": {"type": "Point", "coordinates": [189.23759719946972, 48.89174587291056]}, "properties": {"id": "tree12590292276", "kind": "tree", "osm_id": 12590292276, "tags": {}}}, {"type": "Feature", "geometry": {"type": "Point", "coordinates": [193.2686399391563, 52.40139600440029]}, "properties": {"id": "tree12590292277", "kind": "tree", "osm_id": 12590292277, "tags": {}}}, {"type": "Feature", "geometry": {"type": "Point", "coordinates": [197.0822157890632, 56.4996684958992]}, "properties": {"id": "tree12590292278", "kind": "tree", "osm_id": 12590292278, "tags": {}}}, {"type": "Feature", "geometry": {"type": "Point", "coordinates": [201.41432088057798, 60.36472823588795]}, "properties": {"id": "tree12590292279", "kind": "tree", "osm_id": 12590292279, "tags": {}}}, {"type": "Feature", "geometry": {"type": "Point", "coordinates": [182.63030675840628, 58.46507865125385]}, "properties": {"id": "tree12590292280", "kind": "tree", "osm_id": 12590292280, "tags": {}}}, {"type": "Feature", "geometry": {"type": "Point", "coordinates": [187.76541392097235, 57.88769001681103]}, "properties": {"id": "tree12590292281", "kind": "tree", "osm_id": 12590292281, "tags": {}}}, {"type": "Feature", "geometry": {"type": "Point", "coordinates": [187.33038228184407, 63.21863137331134]}, "properties": {"id": "tree12590292282", "kind": "tree", "osm_id": 12590292282, "tags": {}}}, {"type": "Feature", "geometry": {"type": "Point", "coordinates": [192.02207859670037, 68.33868995235915]}, "properties": {"id": "tree12590292283", "kind": "tree", "osm_id": 12590292283, "tags": {}}}, {"type": "Feature", "geometry": {"type": "Point", "coordinates": [196.12837129723394, 72.13710371672191]}, "properties": {"id": "tree12590292284", "kind": "tree", "osm_id": 12590292284, "tags": {}}}, {"type": "Feature", "geometry": {"type": "Point", "coordinates": [205.44534504437655, 64.09650823182706]}, "properties": {"id": "tree12590292285", "kind": "tree", "osm_id": 12590292285, "tags": {}}}, {"type": "Feature", "geometry": {"type": "Point", "coordinates": [209.9196007172346, 68.55020316075269]}, "properties": {"id": "tree12590292286", "kind": "tree", "osm_id": 12590292286, "tags": {}}}, {"type": "Feature", "geometry": {"type": "Point", "coordinates": [216.30082635567928, 68.4060108441553]}, "properties": {"id": "tree12590292287", "kind": "tree", "osm_id": 12590292287, "tags": {}}}, {"type": "Feature", "geometry": {"type": "Point", "coordinates": [224.73940447513945, 69.13927361763811]}, "properties": {"id": "tree12590292288", "kind": "tree", "osm_id": 12590292288, "tags": {}}}, {"type": "Feature", "geometry": {"type": "Point", "coordinates": [200.67785302960445, 78.20118700892696]}, "properties": {"id": "tree12590292289", "kind": "tree", "osm_id": 12590292289, "tags": {}}}, {"type": "Feature", "geometry": {"type": "Point", "coordinates": [201.18785334293887, 84.04303691303555]}, "properties": {"id": "tree12590292290", "kind": "tree", "osm_id": 12590292290, "tags": {}}}, {"type": "Feature", "geometry": {"type": "Point", "coordinates": [201.12072769196712, 91.93950895264219]}, "properties": {"id": "tree12590292291", "kind": "tree", "osm_id": 12590292291, "tags": {}}}, {"type": "Feature", "geometry": {"type": "Point", "coordinates": [209.04033356588113, 107.2884350847302]}, "properties": {"id": "tree12590292292", "kind": "tree", "osm_id": 12590292292, "tags": {}}}, {"type": "Feature", "geometry": {"type": "Point", "coordinates": [215.94002730754374, 107.86615730528278]}, "properties": {"id": "tree12590292293", "kind": "tree", "osm_id": 12590292293, "tags": {}}}, {"type": "Feature", "geometry": {"type": "Point", "coordinates": [224.22803173354276, 108.23291202874171]}, "properties": {"id": "tree12590292294", "kind": "tree", "osm_id": 12590292294, "tags": {}}}, {"type": "Feature", "geometry": {"type": "Point", "coordinates": [231.19539886089763, 84.69919505663805]}, "properties": {"id": "tree12590292295", "kind": "tree", "osm_id": 12590292295, "tags": {}}}, {"type": "Feature", "geometry": {"type": "Point", "coordinates": [239.558478903692, 91.71855460445965]}, "properties": {"id": "tree12590292296", "kind": "tree", "osm_id": 12590292296, "tags": {}}}, {"type": "Feature", "geometry": {"type": "Point", "coordinates": [238.82302605096294, 76.00332568519099]}, "properties": {"id": "tree12590292297", "kind": "tree", "osm_id": 12590292297, "tags": {}}}, {"type": "Feature", "geometry": {"type": "Point", "coordinates": [243.88187424235906, 104.57962276257251]}, "properties": {"id": "tree12590292298", "kind": "tree", "osm_id": 12590292298, "tags": {}}}, {"type": "Feature", "geometry": {"type": "Point", "coordinates": [236.11212860142413, 112.2537165626933]}, "properties": {"id": "tree12590292299", "kind": "tree", "osm_id": 12590292299, "tags": {}}}, {"type": "Feature", "geometry": {"type": "Point", "coordinates": [245.64612919525118, 116.35220363654294]}, "properties": {"id": "tree12590292300", "kind": "tree", "osm_id": 12590292300, "tags": {}}}, {"type": "Feature", "geometry": {"type": "Point", "coordinates": [-90.97156598659743, -219.67904246801555]}, "properties": {"id": "tree12590293628", "kind": "tree", "osm_id": 12590293628, "tags": {}}}, {"type": "Feature", "geometry": {"type": "Point", "coordinates": [-88.30346767173913, -212.3157003690672]}, "properties": {"id": "tree12590293661", "kind": "tree", "osm_id": 12590293661, "tags": {}}}, {"type": "Feature", "geometry": {"type": "Point", "coordinates": [-81.08560224299318, -209.51703578735533]}, "properties": {"id": "tree12590293662", "kind": "tree", "osm_id": 12590293662, "tags": {}}}, {"type": "Feature", "geometry": {"type": "Point", "coordinates": [-80.42498554767046, -219.59031800341145]}, "properties": {"id": "tree12590293663", "kind": "tree", "osm_id": 12590293663, "tags": {}}}, {"type": "Feature", "geometry": {"type": "Point", "coordinates": [-74.25254075985725, -213.60417093842307]}, "properties": {"id": "tree12590293664", "kind": "tree", "osm_id": 12590293664, "tags": {}}}, {"type": "Feature", "geometry": {"type": "Point", "coordinates": [-69.37648298901289, -208.78415165666058]}, "properties": {"id": "tree12590293665", "kind": "tree", "osm_id": 12590293665, "tags": {}}}, {"type": "Feature", "geometry": {"type": "Point", "coordinates": [-77.5309634649686, -201.39848149485817]}, "properties": {"id": "tree12590293666", "kind": "tree", "osm_id": 12590293666, "tags": {}}}, {"type": "Feature", "geometry": {"type": "Point", "coordinates": [-64.03206168584398, -203.2977644130609]}, "properties": {"id": "tree12590293667", "kind": "tree", "osm_id": 12590293667, "tags": {}}}, {"type": "Feature", "geometry": {"type": "Point", "coordinates": [-67.35236463350293, -196.42302948915452]}, "properties": {"id": "tree12590293668", "kind": "tree", "osm_id": 12590293668, "tags": {}}}, {"type": "Feature", "geometry": {"type": "Point", "coordinates": [-66.72504210136164, -191.01434178093191]}, "properties": {"id": "tree12590293669", "kind": "tree", "osm_id": 12590293669, "tags": {}}}, {"type": "Feature", "geometry": {"type": "Point", "coordinates": [-61.64826988998794, -185.29472106990445]}, "properties": {"id": "tree12590293670", "kind": "tree", "osm_id": 12590293670, "tags": {}}}, {"type": "Feature", "geometry": {"type": "Point", "coordinates": [-55.99441620126056, -179.5862073799287]}, "properties": {"id": "tree12590293671", "kind": "tree", "osm_id": 12590293671, "tags": {}}}, {"type": "Feature", "geometry": {"type": "Point", "coordinates": [-58.604012452381056, -197.8557984430137]}, "properties": {"id": "tree12590293672", "kind": "tree", "osm_id": 12590293672, "tags": {}}}, {"type": "Feature", "geometry": {"type": "Point", "coordinates": [-55.7603545499331, -195.13481491557366]}, "properties": {"id": "tree12590293673", "kind": "tree", "osm_id": 12590293673, "tags": {}}}, {"type": "Feature", "geometry": {"type": "Point", "coordinates": [-47.56393969753849, -187.12734143762273]}, "properties": {"id": "tree12590293674", "kind": "tree", "osm_id": 12590293674, "tags": {}}}, {"type": "Feature", "geometry": {"type": "Point", "coordinates": [-42.13591313227357, -181.37439087997595]}, "properties": {"id": "tree12590293675", "kind": "tree", "osm_id": 12590293675, "tags": {}}}, {"type": "Feature", "geometry": {"type": "Point", "coordinates": [-50.608213158276904, -174.7661791405057]}, "properties": {"id": "tree12590293676", "kind": "tree", "osm_id": 12590293676, "tags": {}}}, {"type": "Feature", "geometry": {"type": "Point", "coordinates": [-42.41185569494509, -171.65651052421956]}, "properties": {"id": "tree12590293677", "kind": "tree", "osm_id": 12590293677, "tags": {}}}, {"type": "Feature", "geometry": {"type": "Point", "coordinates": [-36.440261706892635, -176.0434711471973]}, "properties": {"id": "tree12590293678", "kind": "tree", "osm_id": 12590293678, "tags": {}}}, {"type": "Feature", "geometry": {"type": "Point", "coordinates": [-31.054072826454426, -170.87913778244123]}, "properties": {"id": "tree12590293679", "kind": "tree", "osm_id": 12590293679, "tags": {}}}, {"type": "Feature", "geometry": {"type": "Point", "coordinates": [-39.44272683614719, -162.8271401870816]}, "properties": {"id": "tree12590293680", "kind": "tree", "osm_id": 12590293680, "tags": {}}}, {"type": "Feature", "geometry": {"type": "Point", "coordinates": [-33.312180560615694, -156.48556077388258]}, "properties": {"id": "tree12590293681", "kind": "tree", "osm_id": 12590293681, "tags": {}}}, {"type": "Feature", "geometry": {"type": "Point", "coordinates": [-29.72417636554818, -150.65484891902875]}, "properties": {"id": "tree12590293682", "kind": "tree", "osm_id": 12590293682, "tags": {"leaf_type": "broadleaved"}}}, {"type": "Feature", "geometry": {"type": "Point", "coordinates": [-24.923527729425725, -164.72635585980825]}, "properties": {"id": "tree12590293683", "kind": "tree", "osm_id": 12590293683, "tags": {}}}, {"type": "Feature", "geometry": {"type": "Point", "coordinates": [-18.558822027086535, -162.31634097391583]}, "properties": {"id": "tree12590293684", "kind": "tree", "osm_id": 12590293684, "tags": {}}}, {"type": "Feature", "geometry": {"type": "Point", "coordinates": [-12.863216601231827, -164.6930688555902]}, "properties": {"id": "tree12590293685", "kind": "tree", "osm_id": 12590293685, "tags": {}}}, {"type": "Feature", "geometry": {"type": "Point", "coordinates": [-12.27774477960641, -152.9871904634429]}, "properties": {"id": "tree12590293686", "kind": "tree", "osm_id": 12590293686, "tags": {}}}, {"type": "Feature", "geometry": {"type": "Point", "coordinates": [-31.907045838070243, -144.77968753539952]}, "properties": {"id": "tree12590293687", "kind": "tree", "osm_id": 12590293687, "tags": {"leaf_type": "broadleaved"}}}, {"type": "Feature", "geometry": {"type": "Point", "coordinates": [-43.306358047388855, -104.09780808589801]}, "properties": {"id": "tree12590293688", "kind": "tree", "osm_id": 12590293688, "tags": {}}}, {"type": "Feature", "geometry": {"type": "Point", "coordinates": [-25.968828843388412, -123.17825361823212]}, "properties": {"id": "tree12590293689", "kind": "tree", "osm_id": 12590293689, "tags": {}}}, {"type": "Feature", "geometry": {"type": "Point", "coordinates": [12.955214472603002, -163.72683387246056]}, "properties": {"id": "tree12590293690", "kind": "tree", "osm_id": 12590293690, "tags": {"leaf_type": "broadleaved"}}}, {"type": "Feature", "geometry": {"type": "Point", "coordinates": [-1.120719978288604, -149.14447371267386]}, "properties": {"id": "tree12590293691", "kind": "tree", "osm_id": 12590293691, "tags": {}}}, {"type": "Feature", "geometry": {"type": "Point", "coordinates": [3.4039803327269507, -154.4421053918074]}, "properties": {"id": "tree12590293692", "kind": "tree", "osm_id": 12590293692, "tags": {"leaf_type": "broadleaved"}}}, {"type": "Feature", "geometry": {"type": "Point", "coordinates": [8.054140146471592, -158.81792382447122]}, "properties": {"id": "tree12590293693", "kind": "tree", "osm_id": 12590293693, "tags": {}}}, {"type": "Feature", "geometry": {"type": "Point", "coordinates": [-21.251798595944933, -127.63183434583772]}, "properties": {"id": "tree12590293694", "kind": "tree", "osm_id": 12590293694, "tags": {"leaf_type": "broadleaved"}}}, {"type": "Feature", "geometry": {"type": "Point", "coordinates": [-5.570119870854135, -115.71496645686574]}, "properties": {"id": "tree12590293695", "kind": "tree", "osm_id": 12590293695, "tags": {"leaf_type": "broadleaved"}}}, {"type": "Feature", "geometry": {"type": "Point", "coordinates": [-0.5185401040620111, -121.53459020938848]}, "properties": {"id": "tree12590293696", "kind": "tree", "osm_id": 12590293696, "tags": {"leaf_type": "broadleaved"}}}, {"type": "Feature", "geometry": {"type": "Point", "coordinates": [-23.62694417467207, -95.53505848742999]}, "properties": {"id": "tree12590293697", "kind": "tree", "osm_id": 12590293697, "tags": {"leaf_type": "broadleaved"}}}, {"type": "Feature", "geometry": {"type": "Point", "coordinates": [13.038743581537032, -104.3200487151831]}, "properties": {"id": "tree12590293698", "kind": "tree", "osm_id": 12590293698, "tags": {"leaf_type": "broadleaved"}}}, {"type": "Feature", "geometry": {"type": "Point", "coordinates": [19.353222317341622, -109.35111980722216]}, "properties": {"id": "tree12590293699", "kind": "tree", "osm_id": 12590293699, "tags": {}}}, {"type": "Feature", "geometry": {"type": "Point", "coordinates": [19.88846939010055, -102.3431387358039]}, "properties": {"id": "tree12590293700", "kind": "tree", "osm_id": 12590293700, "tags": {"leaf_type": "broadleaved"}}}, {"type": "Feature", "geometry": {"type": "Point", "coordinates": [24.337853114368013, -98.43376090034943]}, "properties": {"id": "tree12590295901", "kind": "tree", "osm_id": 12590295901, "tags": {}}}, {"type": "Feature", "geometry": {"type": "Point", "coordinates": [17.68895430815261, -140.3483832398258]}, "properties": {"id": "tree12590295902", "kind": "tree", "osm_id": 12590295902, "tags": {"leaf_type": "broadleaved"}}}, {"type": "Feature", "geometry": {"type": "Point", "coordinates": [22.89947756230211, -146.05692857618936]}, "properties": {"id": "tree12590295903", "kind": "tree", "osm_id": 12590295903, "tags": {"leaf_type": "broadleaved"}}}, {"type": "Feature", "geometry": {"type": "Point", "coordinates": [28.327330354644943, -118.02499205782185]}, "properties": {"id": "tree12590295904", "kind": "tree", "osm_id": 12590295904, "tags": {"leaf_type": "broadleaved"}}}, {"type": "Feature", "geometry": {"type": "Point", "coordinates": [28.461120049619886, -111.13917963844575]}, "properties": {"id": "tree12590295905", "kind": "tree", "osm_id": 12590295905, "tags": {"leaf_type": "broadleaved"}}}, {"type": "Feature", "geometry": {"type": "Point", "coordinates": [32.575965004732026, -107.62961944469998]}, "properties": {"id": "tree12590295906", "kind": "tree", "osm_id": 12590295906, "tags": {"leaf_type": "broadleaved"}}}, {"type": "Feature", "geometry": {"type": "Point", "coordinates": [36.565350055187466, -103.53143166505298]}, "properties": {"id": "tree12590295907", "kind": "tree", "osm_id": 12590295907, "tags": {}}}, {"type": "Feature", "geometry": {"type": "Point", "coordinates": [29.32249405730775, -93.73584161387892]}, "properties": {"id": "tree12590295908", "kind": "tree", "osm_id": 12590295908, "tags": {}}}, {"type": "Feature", "geometry": {"type": "Point", "coordinates": [33.905678947582636, -88.82690392814337]}, "properties": {"id": "tree12590295909", "kind": "tree", "osm_id": 12590295909, "tags": {}}}, {"type": "Feature", "geometry": {"type": "Point", "coordinates": [35.16859792580632, -94.7242628257532]}, "properties": {"id": "tree12590295910", "kind": "tree", "osm_id": 12590295910, "tags": {}}}, {"type": "Feature", "geometry": {"type": "Point", "coordinates": [41.34926346276796, -99.088946568462]}, "properties": {"id": "tree12590295911", "kind": "tree", "osm_id": 12590295911, "tags": {}}}, {"type": "Feature", "geometry": {"type": "Point", "coordinates": [39.29175794095277, -84.59543407191441]}, "properties": {"id": "tree12590295912", "kind": "tree", "osm_id": 12590295912, "tags": {}}}, {"type": "Feature", "geometry": {"type": "Point", "coordinates": [45.472451816909576, -94.45765793470716]}, "properties": {"id": "tree12590295913", "kind": "tree", "osm_id": 12590295913, "tags": {}}}, {"type": "Feature", "geometry": {"type": "Point", "coordinates": [46.400725254699694, -82.40748073644906]}, "properties": {"id": "tree12590295914", "kind": "tree", "osm_id": 12590295914, "tags": {}}}, {"type": "Feature", "geometry": {"type": "Point", "coordinates": [50.05563044360394, -90.15954821742916]}, "properties": {"id": "tree12590295915", "kind": "tree", "osm_id": 12590295915, "tags": {}}}, {"type": "Feature", "geometry": {"type": "Point", "coordinates": [53.97808734101455, -85.98360815984162]}, "properties": {"id": "tree12590295916", "kind": "tree", "osm_id": 12590295916, "tags": {}}}, {"type": "Feature", "geometry": {"type": "Point", "coordinates": [47.46284964710874, -76.188030512726]}, "properties": {"id": "tree12590295917", "kind": "tree", "osm_id": 12590295917, "tags": {}}}, {"type": "Feature", "geometry": {"type": "Point", "coordinates": [51.58602667801282, -72.3452748085258]}, "properties": {"id": "tree12590295918", "kind": "tree", "osm_id": 12590295918, "tags": {}}}, {"type": "Feature", "geometry": {"type": "Point", "coordinates": [55.642333634010384, -74.00006099328192]}, "properties": {"id": "tree12590295919", "kind": "tree", "osm_id": 12590295919, "tags": {}}}, {"type": "Feature", "geometry": {"type": "Point", "coordinates": [55.97682643368011, -67.91388877660131]}, "properties": {"id": "tree12590295920", "kind": "tree", "osm_id": 12590295920, "tags": {}}}, {"type": "Feature", "geometry": {"type": "Point", "coordinates": [62.61752011390149, -77.64282092040395]}, "properties": {"id": "tree12590295921", "kind": "tree", "osm_id": 12590295921, "tags": {}}}, {"type": "Feature", "geometry": {"type": "Point", "coordinates": [58.69507261897453, -81.80765956025735]}, "properties": {"id": "tree12590295922", "kind": "tree", "osm_id": 12590295922, "tags": {}}}, {"type": "Feature", "geometry": {"type": "Point", "coordinates": [60.493116636480906, -68.70238906699028]}, "properties": {"id": "tree12590295923", "kind": "tree", "osm_id": 12590295923, "tags": {}}}, {"type": "Feature", "geometry": {"type": "Point", "coordinates": [67.20903648943987, -72.81160502257366]}, "properties": {"id": "tree12590295924", "kind": "tree", "osm_id": 12590295924, "tags": {}}}, {"type": "Feature", "geometry": {"type": "Point", "coordinates": [60.626890374474755, -63.67130242261148]}, "properties": {"id": "tree12590295925", "kind": "tree", "osm_id": 12590295925, "tags": {}}}, {"type": "Feature", "geometry": {"type": "Point", "coordinates": [64.87550081431792, -59.306549022585344]}, "properties": {"id": "tree12590295926", "kind": "tree", "osm_id": 12590295926, "tags": {}}}, {"type": "Feature", "geometry": {"type": "Point", "coordinates": [69.33319286069234, -54.930684953296655]}, "properties": {"id": "tree12590295927", "kind": "tree", "osm_id": 12590295927, "tags": {}}}, {"type": "Feature", "geometry": {"type": "Point", "coordinates": [72.5865447817649, -51.021288546806254]}, "properties": {"id": "tree12590295928", "kind": "tree", "osm_id": 12590295928, "tags": {}}}, {"type": "Feature", "geometry": {"type": "Point", "coordinates": [71.32383173777328, -68.36910610002843]}, "properties": {"id": "tree12590295929", "kind": "tree", "osm_id": 12590295929, "tags": {}}}, {"type": "Feature", "geometry": {"type": "Point", "coordinates": [75.38008321668879, -64.4708067237888]}, "properties": {"id": "tree12590295930", "kind": "tree", "osm_id": 12590295930, "tags": {}}}, {"type": "Feature", "geometry": {"type": "Point", "coordinates": [79.82104636207093, -60.205997905370296]}, "properties": {"id": "tree12590295931", "kind": "tree", "osm_id": 12590295931, "tags": {}}}, {"type": "Feature", "geometry": {"type": "Point", "coordinates": [84.06964810633183, -56.26326689938966]}, "properties": {"id": "tree12590295932", "kind": "tree", "osm_id": 12590295932, "tags": {}}}, {"type": "Feature", "geometry": {"type": "Point", "coordinates": [88.14247984412421, -41.425402954012135]}, "properties": {"id": "tree12590295933", "kind": "tree", "osm_id": 12590295933, "tags": {}}}, {"type": "Feature", "geometry": {"type": "Point", "coordinates": [85.11487479435385, -38.582264866735606]}, "properties": {"id": "tree12590295934", "kind": "tree", "osm_id": 12590295934, "tags": {}}}, {"type": "Feature", "geometry": {"type": "Point", "coordinates": [89.070745289448, -35.05046176314361]}, "properties": {"id": "tree12590295935", "kind": "tree", "osm_id": 12590295935, "tags": {}}}, {"type": "Feature", "geometry": {"type": "Point", "coordinates": [92.91808847444324, -47.22275330877773]}, "properties": {"id": "tree12590295936", "kind": "tree", "osm_id": 12590295936, "tags": {}}}, {"type": "Feature", "geometry": {"type": "Point", "coordinates": [96.81540943043079, -43.224488498346545]}, "properties": {"id": "tree12590295937", "kind": "tree", "osm_id": 12590295937, "tags": {}}}, {"type": "Feature", "geometry": {"type": "Point", "coordinates": [96.05420093965539, -33.140114832697556]}, "properties": {"id": "tree12590295938", "kind": "tree", "osm_id": 12590295938, "tags": {}}}, {"type": "Feature", "geometry": {"type": "Point", "coordinates": [101.46542973516542, -38.704222038680854]}, "properties": {"id": "tree12590295939", "kind": "tree", "osm_id": 12590295939, "tags": {}}}, {"type": "Feature", "geometry": {"type": "Point", "coordinates": [96.81519029176543, -26.820705530119163]}, "properties": {"id": "tree12590295940", "kind": "tree", "osm_id": 12590295940, "tags": {}}}, {"type": "Feature", "geometry": {"type": "Point", "coordinates": [101.34811523494305, -22.533669738700873]}, "properties": {"id": "tree12590295941", "kind": "tree", "osm_id": 12590295941, "tags": {}}}, {"type": "Feature", "geometry": {"type": "Point", "coordinates": [105.7139986746007, -34.18395842988798]}, "properties": {"id": "tree12590295942", "kind": "tree", "osm_id": 12590295942, "tags": {}}}, {"type": "Feature", "geometry": {"type": "Point", "coordinates": [109.7869387379531, -30.241214744392007]}, "properties": {"id": "tree12590295943", "kind": "tree", "osm_id": 12590295943, "tags": {}}}, {"type": "Feature", "geometry": {"type": "Point", "coordinates": [105.24532987708233, -12.449230066069727]}, "properties": {"id": "tree12590295944", "kind": "tree", "osm_id": 12590295944, "tags": {}}}, {"type": "Feature", "geometry": {"type": "Point", "coordinates": [105.36233692064663, -6.88504719157701]}, "properties": {"id": "tree12590295945", "kind": "tree", "osm_id": 12590295945, "tags": {}}}, {"type": "Feature", "geometry": {"type": "Point", "coordinates": [105.18662261438932, -1.1987008682744937]}, "properties": {"id": "tree12590295946", "kind": "tree", "osm_id": 12590295946, "tags": {}}}, {"type": "Feature", "geometry": {"type": "Point", "coordinates": [111.24194933805624, -15.336739494845524]}, "properties": {"id": "tree12590295947", "kind": "tree", "osm_id": 12590295947, "tags": {}}}, {"type": "Feature", "geometry": {"type": "Point", "coordinates": [118.80250018948942, -16.091837693844003]}, "properties": {"id": "tree12590295948", "kind": "tree", "osm_id": 12590295948, "tags": {}}}, {"type": "Feature", "geometry": {"type": "Point", "coordinates": [119.50519739497535, -26.35390860213161]}, "properties": {"id": "tree12590295949", "kind": "tree", "osm_id": 12590295949, "tags": {}}}, {"type": "Feature", "geometry": {"type": "Point", "coordinates": [125.72760501593704, -26.820261613956554]}, "properties": {"id": "tree12590295950", "kind": "tree", "osm_id": 12590295950, "tags": {}}}, {"type": "Feature", "geometry": {"type": "Point", "coordinates": [127.93540496106925, -18.412867556969445]}, "properties": {"id": "tree12590295951", "kind": "tree", "osm_id": 12590295951, "tags": {}}}, {"type": "Feature", "geometry": {"type": "Point", "coordinates": [133.5223125745902, -25.77614411770808]}, "properties": {"id": "tree12590295952", "kind": "tree", "osm_id": 12590295952, "tags": {}}}, {"type": "Feature", "geometry": {"type": "Point", "coordinates": [247.5526965173361, 123.94887670616856]}, "properties": {"id": "tree12590308901", "kind": "tree", "osm_id": 12590308901, "tags": {}}}, {"type": "Feature", "geometry": {"type": "Point", "coordinates": [17.42138822172872, -168.7245908061782]}, "properties": {"id": "tree12633020959", "kind": "tree", "osm_id": 12633020959, "tags": {"leaf_type": "broadleaved"}}}, {"type": "Feature", "geometry": {"type": "Point", "coordinates": [21.45266006657347, -173.6112847769403]}, "properties": {"id": "tree12633020960", "kind": "tree", "osm_id": 12633020960, "tags": {"leaf_type": "broadleaved"}}}, {"type": "Feature", "geometry": {"type": "Point", "coordinates": [28.369392624461284, -180.49707222462484]}, "properties": {"id": "tree12633020961", "kind": "tree", "osm_id": 12633020961, "tags": {"leaf_type": "broadleaved"}}}, {"type": "Feature", "geometry": {"type": "Point", "coordinates": [27.315464226559634, -150.64375225062497]}, "properties": {"id": "tree12633020962", "kind": "tree", "osm_id": 12633020962, "tags": {"leaf_type": "broadleaved"}}}, {"type": "Feature", "geometry": {"type": "Point", "coordinates": [36.44018213277283, -160.2172112668348]}, "properties": {"id": "tree12633020963", "kind": "tree", "osm_id": 12633020963, "tags": {"leaf_type": "broadleaved"}}}, {"type": "Feature", "geometry": {"type": "Point", "coordinates": [43.92582899614811, -198.1002374969159]}, "properties": {"id": "tree12633020964", "kind": "tree", "osm_id": 12633020964, "tags": {"leaf_type": "broadleaved"}}}, {"type": "Feature", "geometry": {"type": "Point", "coordinates": [49.496049426888646, -203.55331963332594]}, "properties": {"id": "tree12633020965", "kind": "tree", "osm_id": 12633020965, "tags": {"leaf_type": "broadleaved"}}}, {"type": "Feature", "geometry": {"type": "Point", "coordinates": [54.87391350971467, -208.9064435831061]}, "properties": {"id": "tree12633020966", "kind": "tree", "osm_id": 12633020966, "tags": {"leaf_type": "broadleaved"}}}, {"type": "Feature", "geometry": {"type": "Point", "coordinates": [60.736888908630675, -215.603403170569]}, "properties": {"id": "tree12633020967", "kind": "tree", "osm_id": 12633020967, "tags": {"leaf_type": "broadleaved"}}}, {"type": "Feature", "geometry": {"type": "Point", "coordinates": [66.97623571510208, -221.82279018294972]}, "properties": {"id": "tree12633020968", "kind": "tree", "osm_id": 12633020968, "tags": {"leaf_type": "broadleaved"}}}, {"type": "Feature", "geometry": {"type": "Point", "coordinates": [86.6642067306981, -213.60403315048532]}, "properties": {"id": "tree12633020971", "kind": "tree", "osm_id": 12633020971, "tags": {"leaf_type": "broadleaved"}}}, {"type": "Feature", "geometry": {"type": "Point", "coordinates": [100.20477175180694, -199.53237082439094]}, "properties": {"id": "tree12633020972", "kind": "tree", "osm_id": 12633020972, "tags": {"leaf_type": "broadleaved"}}}, {"type": "Feature", "geometry": {"type": "Point", "coordinates": [-52.33890124824873, -94.52424849180139]}, "properties": {"id": "tree12633020973", "kind": "tree", "osm_id": 12633020973, "tags": {"leaf_type": "broadleaved"}}}, {"type": "Feature", "geometry": {"type": "Point", "coordinates": [-57.04752199725634, -89.39317229552675]}, "properties": {"id": "tree12633020974", "kind": "tree", "osm_id": 12633020974, "tags": {"leaf_type": "broadleaved"}}}, {"type": "Feature", "geometry": {"type": "Point", "coordinates": [-61.388146566272354, -84.82850971386145]}, "properties": {"id": "tree12633020975", "kind": "tree", "osm_id": 12633020975, "tags": {}}}, {"type": "Feature", "geometry": {"type": "Point", "coordinates": [-75.71467433454177, -69.42414571351287]}, "properties": {"id": "tree12633020976", "kind": "tree", "osm_id": 12633020976, "tags": {}}}, {"type": "Feature", "geometry": {"type": "Point", "coordinates": [-28.360677710895153, -90.72607916747752]}, "properties": {"id": "tree12633020981", "kind": "tree", "osm_id": 12633020981, "tags": {"leaf_type": "broadleaved"}}}, {"type": "Feature", "geometry": {"type": "Point", "coordinates": [-33.161312121929896, -85.7171857374023]}, "properties": {"id": "tree12633020982", "kind": "tree", "osm_id": 12633020982, "tags": {"leaf_type": "broadleaved"}}}, {"type": "Feature", "geometry": {"type": "Point", "coordinates": [-37.14231888462574, -81.15253928802329]}, "properties": {"id": "tree12633020983", "kind": "tree", "osm_id": 12633020983, "tags": {"leaf_type": "broadleaved"}}}, {"type": "Feature", "geometry": {"type": "Point", "coordinates": [-41.942940627625944, -76.09921536968919]}, "properties": {"id": "tree12633020984", "kind": "tree", "osm_id": 12633020984, "tags": {"leaf_type": "broadleaved"}}}, {"type": "Feature", "geometry": {"type": "Point", "coordinates": [-47.34572215181657, -70.29066619165991]}, "properties": {"id": "tree12633020985", "kind": "tree", "osm_id": 12633020985, "tags": {"leaf_type": "broadleaved"}}}, {"type": "Feature", "geometry": {"type": "Point", "coordinates": [-51.159446418896, -66.38127581618883]}, "properties": {"id": "tree12633020986", "kind": "tree", "osm_id": 12633020986, "tags": {"leaf_type": "broadleaved"}}}, {"type": "Feature", "geometry": {"type": "Point", "coordinates": [-55.85132669387263, -61.76108315121969]}, "properties": {"id": "tree12633020987", "kind": "tree", "osm_id": 12633020987, "tags": {"leaf_type": "broadleaved"}}}, {"type": "Feature", "geometry": {"type": "Point", "coordinates": [-60.60174030187632, -56.54115486669247]}, "properties": {"id": "tree12633020988", "kind": "tree", "osm_id": 12633020988, "tags": {"leaf_type": "broadleaved"}}}, {"type": "Feature", "geometry": {"type": "Point", "coordinates": [120.11059349131808, -221.15573560758315]}, "properties": {"id": "tree12633084505", "kind": "tree", "osm_id": 12633084505, "tags": {"leaf_type": "broadleaved"}}}, {"type": "Feature", "geometry": {"type": "Point", "coordinates": [118.08645246666626, -212.9261143611917]}, "properties": {"id": "tree12633084506", "kind": "tree", "osm_id": 12633084506, "tags": {"leaf_type": "broadleaved"}}}, {"type": "Feature", "geometry": {"type": "Point", "coordinates": [-111.29191671045521, -1.454051136558986]}, "properties": {"id": "tree12633084534", "kind": "tree", "osm_id": 12633084534, "tags": {}}}, {"type": "Feature", "geometry": {"type": "Point", "coordinates": [-116.15933390345158, 4.054675766701548]}, "properties": {"id": "tree12633084535", "kind": "tree", "osm_id": 12633084535, "tags": {}}}, {"type": "Feature", "geometry": {"type": "Point", "coordinates": [-153.55069174989356, 71.38085818728416]}, "properties": {"id": "tree12633084538", "kind": "tree", "osm_id": 12633084538, "tags": {"leaf_type": "broadleaved"}}}, {"type": "Feature", "geometry": {"type": "Point", "coordinates": [-157.314026361784, 78.87759118741386]}, "properties": {"id": "tree12633084539", "kind": "tree", "osm_id": 12633084539, "tags": {"leaf_type": "broadleaved"}}}, {"type": "Feature", "geometry": {"type": "Point", "coordinates": [-200.67072813977924, 33.476715928838004]}, "properties": {"id": "tree12633084542", "kind": "tree", "osm_id": 12633084542, "tags": {"leaf_type": "broadleaved"}}}, {"type": "Feature", "geometry": {"type": "Point", "coordinates": [-212.8138330122392, 50.84708245215221]}, "properties": {"id": "tree12633084551", "kind": "tree", "osm_id": 12633084551, "tags": {"leaf_type": "broadleaved"}}}, {"type": "Feature", "geometry": {"type": "Point", "coordinates": [-211.4758711911735, 44.87193401273414]}, "properties": {"id": "tree12633084552", "kind": "tree", "osm_id": 12633084552, "tags": {"leaf_type": "broadleaved"}}}, {"type": "Feature", "geometry": {"type": "Point", "coordinates": [-185.9667724838173, 78.25632532735523]}, "properties": {"id": "tree12633084553", "kind": "tree", "osm_id": 12633084553, "tags": {}}}, {"type": "Feature", "geometry": {"type": "Point", "coordinates": [-190.54974512560617, 83.06540803995343]}, "properties": {"id": "tree12633084554", "kind": "tree", "osm_id": 12633084554, "tags": {}}}, {"type": "Feature", "geometry": {"type": "Point", "coordinates": [-246.82349750060476, 170.7723920422141]}, "properties": {"id": "tree12633084557", "kind": "tree", "osm_id": 12633084557, "tags": {}}}, {"type": "Feature", "geometry": {"type": "Point", "coordinates": [99.93424018907366, 10.418258015239669]}, "properties": {"id": "tree13356409797", "kind": "tree", "osm_id": 13356409797, "tags": {}}}, {"type": "Feature", "geometry": {"type": "Point", "coordinates": [94.63176419703872, 16.682055691478986]}, "properties": {"id": "tree13356409798", "kind": "tree", "osm_id": 13356409798, "tags": {}}}, {"type": "Feature", "geometry": {"type": "Point", "coordinates": [89.14531277403827, 22.146212200569583]}, "properties": {"id": "tree13356409799", "kind": "tree", "osm_id": 13356409799, "tags": {}}}, {"type": "Feature", "geometry": {"type": "Point", "coordinates": [83.21560855262626, 27.788066218550206]}, "properties": {"id": "tree13356409800", "kind": "tree", "osm_id": 13356409800, "tags": {}}}, {"type": "Feature", "geometry": {"type": "Point", "coordinates": [77.55354346368739, 33.24112343354492]}, "properties": {"id": "tree13356412001", "kind": "tree", "osm_id": 13356412001, "tags": {}}}, {"type": "Feature", "geometry": {"type": "Point", "coordinates": [72.16747429610766, 39.06069084061277]}, "properties": {"id": "tree13356412002", "kind": "tree", "osm_id": 13356412002, "tags": {}}}, {"type": "Feature", "geometry": {"type": "Point", "coordinates": [66.9570558924758, 43.625268861962894]}, "properties": {"id": "tree13356412003", "kind": "tree", "osm_id": 13356412003, "tags": {}}}, {"type": "Feature", "geometry": {"type": "Point", "coordinates": [60.30813225003201, 49.97792887288543]}, "properties": {"id": "tree13356412004", "kind": "tree", "osm_id": 13356412004, "tags": {}}}, {"type": "Feature", "geometry": {"type": "Point", "coordinates": [55.8169693827901, 55.530968459485265]}, "properties": {"id": "tree13356412005", "kind": "tree", "osm_id": 13356412005, "tags": {}}}, {"type": "Feature", "geometry": {"type": "Point", "coordinates": [49.70332130481361, 61.70594403899399]}, "properties": {"id": "tree13356412006", "kind": "tree", "osm_id": 13356412006, "tags": {}}}, {"type": "Feature", "geometry": {"type": "Point", "coordinates": [52.67221149859601, 74.77790521603316]}, "properties": {"id": "tree13356412007", "kind": "tree", "osm_id": 13356412007, "tags": {}}}, {"type": "Feature", "geometry": {"type": "Point", "coordinates": [58.325870038857566, 68.33638066323155]}, "properties": {"id": "tree13356412008", "kind": "tree", "osm_id": 13356412008, "tags": {}}}, {"type": "Feature", "geometry": {"type": "Point", "coordinates": [69.55793095563027, 57.141479244597036]}, "properties": {"id": "tree13356412009", "kind": "tree", "osm_id": 13356412009, "tags": {}}}, {"type": "Feature", "geometry": {"type": "Point", "coordinates": [75.04434387722185, 51.41075998087056]}, "properties": {"id": "tree13356412010", "kind": "tree", "osm_id": 13356412010, "tags": {}}}, {"type": "Feature", "geometry": {"type": "Point", "coordinates": [80.07076598754219, 47.02388409806932]}, "properties": {"id": "tree13356412011", "kind": "tree", "osm_id": 13356412011, "tags": {}}}, {"type": "Feature", "geometry": {"type": "Point", "coordinates": [85.73282325369524, 41.481979523617035]}, "properties": {"id": "tree13356412012", "kind": "tree", "osm_id": 13356412012, "tags": {}}}, {"type": "Feature", "geometry": {"type": "Point", "coordinates": [97.32460279364827, 29.576332227502185]}, "properties": {"id": "tree13356412013", "kind": "tree", "osm_id": 13356412013, "tags": {}}}, {"type": "Feature", "geometry": {"type": "Point", "coordinates": [108.28915144357791, 18.659141693489918]}, "properties": {"id": "tree13356412014", "kind": "tree", "osm_id": 13356412014, "tags": {}}}]}