{
  "type": "FeatureCollection",
  "features": [
    {
      "type": "Feature",
      "geometry": {
        "type": "Polygon",
        "coordinates": [
          [
            [
              2.167330276100597,
              41.39392336907509
            ],
            [
              2.1670559765673096,
              41.39371637305057
            ],
            [
              2.166488707608383,
              41.39329478667857
            ],
            [
              2.1664740471187605,
              41.39330663081757
            ],
            [
              2.1668758009215465,
              41.393611405152846
            ],
            [
              2.167036220510199,
              41.39373196087993
            ],
            [
              2.167165909457061,
              41.393829885806
            ],
            [
              2.1673074395686514,
              41.393938174105365
            ],
            [
              2.167330276100597,
              41.39392336907509
            ]
          ]
        ]
      },
      "properties": {
        "source": "osm:1025549398",
        "name": "Carrer d'Arag\u00f3",
        "kind": "biking",
        "left": [
          [
            2.167330276100597,
            41.39392336907509
          ],
          [
            2.1670559765673096,
            41.39371637305057
          ],
          [
            2.166488707608383,
            41.39329478667857
          ]
        ],
        "right": [
          [
            2.1673074395686514,
            41.393938174105365
          ],
          [
            2.167165909457061,
            41.393829885806
          ],
          [
            2.167036220510199,
            41.39373196087993
          ],
          [
            2.1668758009215465,
            41.393611405152846
          ],
          [
            2.1664740471187605,
            41.39330663081757
          ]
        ],
        "provenance": {
          "osm_way_ids": [
            1025549398
          ],
          "basis": "OSM centreline and tagged width",
          "initial_width_m": 1.5
        },
        "estimated": false,
        "replaces": "osm:1025549398:15",
        "id": "c1",
        "ts": "2026-09-07T10:30:17"
      }
    },
    {
      "type": "Feature",
      "geometry": {
        "type": "Polygon",
        "coordinates": [
          [
            [
              2.1671798866666667,
              41.39370717333333
            ],
            [
              2.1669225633333333,
              41.39351404666667
            ],
            [
              2.16687783,
              41.393547846666664
            ],
            [
              2.167051472122892,
              41.393679557977926
            ],
            [
              2.1671372936431426,
              41.39374216137408
            ],
            [
              2.1671798866666667,
              41.39370717333333
            ]
          ]
        ]
      },
      "properties": {
        "source": "lane:r9:1",
        "name": "Carrer d'Arag\u00f3",
        "kind": "sidewalk",
        "left": [
          [
            2.1671798866666667,
            41.39370717333333
          ],
          [
            2.1669225633333333,
            41.39351404666667
          ]
        ],
        "right": [
          [
            2.1671372936431426,
            41.39374216137408
          ],
          [
            2.167051472122892,
            41.393679557977926
          ],
          [
            2.16687783,
            41.393547846666664
          ]
        ],
        "provenance": {
          "road_id": "r9",
          "lane_id": 1,
          "osm_way_ids": [
            308355199
          ],
          "basis": "generated width estimate"
        },
        "estimated": false,
        "replaces": "lane:r9:1:1",
        "id": "c2",
        "ts": "2026-09-07T10:47:14"
      }
    },
    {
      "type": "Feature",
      "geometry": {
        "type": "Polygon",
        "coordinates": [
          [
            [
              2.1673542403625317,
              41.39390602603533
            ],
            [
              2.166510134477862,
              41.393282942537354
            ],
            [
              2.1665011126381066,
              41.393298170718495
            ],
            [
              2.167329994168119,
              41.39392294607416
            ],
            [
              2.1673542403625317,
              41.39390602603533
            ]
          ]
        ]
      },
      "properties": {
        "source": "lane:r9:-1",
        "name": "Carrer d'Arag\u00f3",
        "kind": "parking",
        "left": [
          [
            2.1673542403625317,
            41.39390602603533
          ],
          [
            2.166510134477862,
            41.393282942537354
          ]
        ],
        "right": [
          [
            2.167329994168119,
            41.39392294607416
          ],
          [
            2.1665011126381066,
            41.393298170718495
          ]
        ],
        "provenance": {
          "road_id": "r9",
          "lane_id": -1,
          "osm_way_ids": [
            308355199
          ],
          "basis": "generated width estimate"
        },
        "estimated": false,
        "replaces": "lane:r9:-1:1",
        "id": "c3",
        "ts": "2026-09-07T10:54:45"
      }
    },
    {
      "type": "Feature",
      "geometry": {
        "type": "Polygon",
        "coordinates": [
          [
            [
              2.167309413096113,
              41.393939020106984
            ],
            [
              2.166668580539053,
              41.3934584894089
            ],
            [
              2.16664658980458,
              41.39347519806235
            ],
            [
              2.1672877042941163,
              41.39395636313796
            ],
            [
              2.167309413096113,
              41.393939020106984
            ]
          ]
        ]
      },
      "properties": {
        "source": "lane:r9:-2",
        "name": "Carrer d'Arag\u00f3",
        "kind": "driving",
        "left": [
          [
            2.167309413096113,
            41.393939020106984
          ],
          [
            2.166668580539053,
            41.3934584894089
          ]
        ],
        "right": [
          [
            2.1672877042941163,
            41.39395636313796
          ],
          [
            2.16664658980458,
            41.39347519806235
          ]
        ],
        "provenance": {
          "road_id": "r9",
          "lane_id": -2,
          "osm_way_ids": [
            308355199
          ],
          "basis": "generated width estimate"
        },
        "estimated": false,
        "replaces": "lane:r9:-2:2",
        "id": "c4",
        "ts": "2026-09-07T10:57:53"
      }
    },
    {
      "type": "Feature",
      "geometry": {
        "type": "Polygon",
        "coordinates": [
          [
            [
              2.1666815494337315,
              41.393586447974386
            ],
            [
              2.1665597545966757,
              41.3934942332319
            ],
            [
              2.166541710917125,
              41.393480697111904
            ],
            [
              2.1663984892105903,
              41.3933732540594
            ],
            [
              2.166360146391511,
              41.39334533575685
            ],
            [
              2.1663477413617875,
              41.393335183643856
            ],
            [
              2.166335336332104,
              41.39334533575685
            ],
            [
              2.1663477413617875,
              41.39335464185904
            ],
            [
              2.166386084180867,
              41.39338256015757
            ],
            [
              2.166529305887402,
              41.39349084920215
            ],
            [
              2.1665473495669922,
              41.393504385320036
            ],
            [
              2.166669144404048,
              41.39359660004812
            ],
            [
              2.1666815494337315,
              41.393586447974386
            ]
          ]
        ]
      },
      "properties": {
        "source": "osm:1025549398",
        "name": "Carrer d'Arag\u00f3",
        "kind": "biking",
        "left": [
          [
            2.1666815494337315,
            41.393586447974386
          ],
          [
            2.1665597545966757,
            41.3934942332319
          ],
          [
            2.166541710917125,
            41.393480697111904
          ],
          [
            2.1663984892105903,
            41.3933732540594
          ],
          [
            2.166360146391511,
            41.39334533575685
          ],
          [
            2.1663477413617875,
            41.393335183643856
          ]
        ],
        "right": [
          [
            2.166669144404048,
            41.39359660004812
          ],
          [
            2.1665473495669922,
            41.393504385320036
          ],
          [
            2.166529305887402,
            41.39349084920215
          ],
          [
            2.166386084180867,
            41.39338256015757
          ],
          [
            2.1663477413617875,
            41.39335464185904
          ],
          [
            2.166335336332104,
            41.39334533575685
          ]
        ],
        "provenance": {
          "osm_way_ids": [
            1025549398
          ],
          "basis": "OSM centreline and tagged width",
          "initial_width_m": 1.5
        },
        "estimated": false,
        "replaces": "osm:1025549398:16",
        "id": "c5",
        "ts": "2026-09-07T12:34:21"
      }
    },
    {
      "type": "Feature",
      "geometry": {
        "type": "Polygon",
        "coordinates": [
          [
            [
              2.16670297630321,
              41.393352315333615
            ],
            [
              2.1666454620746305,
              41.39339207775662
            ],
            [
              2.1665789260062156,
              41.39343480118403
            ],
            [
              2.166481377363572,
              41.39350586583274
            ],
            [
              2.1664977294481784,
              41.39351855594044
            ],
            [
              2.166595278090822,
              41.39344833731359
            ],
            [
              2.166661250294242,
              41.39340561389509
            ],
            [
              2.1667193283878166,
              41.39336585148036
            ],
            [
              2.16670297630321,
              41.393352315333615
            ]
          ]
        ]
      },
      "properties": {
        "source": "osm:608034979",
        "name": "Carrer d'Arag\u00f3",
        "kind": "sidewalk",
        "left": [
          [
            2.16670297630321,
            41.393352315333615
          ],
          [
            2.1666454620746305,
            41.39339207775662
          ],
          [
            2.1665789260062156,
            41.39343480118403
          ],
          [
            2.166481377363572,
            41.39350586583274
          ]
        ],
        "right": [
          [
            2.1667193283878166,
            41.39336585148036
          ],
          [
            2.166661250294242,
            41.39340561389509
          ],
          [
            2.166595278090822,
            41.39344833731359
          ],
          [
            2.1664977294481784,
            41.39351855594044
          ]
        ],
        "provenance": {
          "osm_way_ids": [
            608034979
          ],
          "basis": "OSM centreline and assumed width",
          "initial_width_m": 2
        },
        "estimated": false,
        "replaces": "osm:608034979:0",
        "id": "c7",
        "ts": "2026-09-07T14:19:02"
      }
    },
    {
      "type": "Feature",
      "geometry": {
        "type": "Polygon",
        "coordinates": [
          [
            [
              2.166970812171774,
              41.39365793545996
            ],
            [
              2.166713971670467,
              41.39346441146378
            ],
            [
              2.166681831366249,
              41.393488734183485
            ],
            [
              2.166938671867556,
              41.393682258107255
            ],
            [
              2.166970812171774,
              41.39365793545996
            ]
          ]
        ]
      },
      "properties": {
        "source": "lane:r9:-3",
        "name": "Carrer d'Arag\u00f3",
        "kind": "driving",
        "left": [
          [
            2.166970812171774,
            41.39365793545996
          ],
          [
            2.166713971670467,
            41.39346441146378
          ]
        ],
        "right": [
          [
            2.166938671867556,
            41.393682258107255
          ],
          [
            2.166681831366249,
            41.393488734183485
          ]
        ],
        "provenance": {
          "road_id": "r9",
          "lane_id": -3,
          "osm_way_ids": [
            308355199
          ],
          "basis": "generated width estimate"
        },
        "estimated": false,
        "replaces": "lane:r9:-3:2",
        "id": "c8",
        "ts": "2026-09-07T14:19:13"
      }
    },
    {
      "type": "Feature",
      "geometry": {
        "type": "Polygon",
        "coordinates": [
          [
            [
              2.166674783053915,
              41.39315561788331
            ],
            [
              2.1666189604202395,
              41.39318184424443
            ],
            [
              2.1665287420224466,
              41.39323260491326
            ],
            [
              2.166515773127729,
              41.393257985232815
            ],
            [
              2.166519156317657,
              41.39327702046595
            ],
            [
              2.16653156134738,
              41.39329478667857
            ],
            [
              2.1665586268667263,
              41.39331509091557
            ],
            [
              2.1665811814661544,
              41.39333158810348
            ],
            [
              2.1666189604202395,
              41.393354853361345
            ],
            [
              2.1666437704796464,
              41.39337261955266
            ],
            [
              2.1666713998639864,
              41.3933628904485
            ],
            [
              2.166684368758665,
              41.39335781439358
            ],
            [
              2.16669339059846,
              41.393346816273194
            ],
            [
              2.1666962099233933,
              41.3933045157929
            ],
            [
              2.1666973376533827,
              41.39323598895642
            ],
            [
              2.166700156978316,
              41.39316830805937
            ],
            [
              2.166674783053915,
              41.39315561788331
            ]
          ]
        ]
      },
      "properties": {
        "source": "osm:608034977",
        "name": "Carrer d'Arag\u00f3",
        "kind": "sidewalk",
        "left": [
          [
            2.166674783053915,
            41.39315561788331
          ],
          [
            2.1666189604202395,
            41.39318184424443
          ],
          [
            2.1665287420224466,
            41.39323260491326
          ],
          [
            2.166515773127729,
            41.393257985232815
          ],
          [
            2.166519156317657,
            41.39327702046595
          ],
          [
            2.16653156134738,
            41.39329478667857
          ],
          [
            2.1665586268667263,
            41.39331509091557
          ],
          [
            2.1665811814661544,
            41.39333158810348
          ],
          [
            2.1666189604202395,
            41.393354853361345
          ],
          [
            2.1666437704796464,
            41.39337261955266
          ],
          [
            2.1666713998639864,
            41.3933628904485
          ]
        ],
        "right": [
          [
            2.166700156978316,
            41.39316830805937
          ],
          [
            2.1666973376533827,
            41.39323598895642
          ],
          [
            2.1666962099233933,
            41.3933045157929
          ],
          [
            2.16669339059846,
            41.393346816273194
          ],
          [
            2.166684368758665,
            41.39335781439358
          ]
        ],
        "provenance": {
          "osm_way_ids": [
            608034977
          ],
          "basis": "OSM centreline and assumed width",
          "initial_width_m": 2
        },
        "estimated": false,
        "replaces": "osm:608034977:0",
        "id": "c10",
        "ts": "2026-09-08T07:41:24"
      }
    },
    {
      "type": "Feature",
      "geometry": {
        "type": "Polygon",
        "coordinates": [
          [
            [
              2.1666234713401566,
              41.39335823739817
            ],
            [
              2.166792630836048,
              41.39348302363272
            ],
            [
              2.1668958181285585,
              41.393560856281425
            ],
            [
              2.166992239041252,
              41.39363234379517
            ],
            [
              2.1670097188558484,
              41.39360442560391
            ],
            [
              2.1666905712735263,
              41.393352315333615
            ],
            [
              2.1666234713401566,
              41.39335823739817
            ]
          ]
        ]
      },
      "properties": {
        "source": "osm:608036227",
        "name": "Carrer d'Arag\u00f3",
        "kind": "sidewalk",
        "left": [
          [
            2.1666234713401566,
            41.39335823739817
          ],
          [
            2.166792630836048,
            41.39348302363272
          ],
          [
            2.1668958181285585,
            41.393560856281425
          ],
          [
            2.166992239041252,
            41.39363234379517
          ]
        ],
        "right": [
          [
            2.1666905712735263,
            41.393352315333615
          ],
          [
            2.1670097188558484,
            41.39360442560391
          ]
        ],
        "provenance": {
          "osm_way_ids": [
            608036227
          ],
          "basis": "OSM centreline and assumed width",
          "initial_width_m": 2
        },
        "estimated": false,
        "replaces": "osm:608036227:0",
        "id": "c11",
        "ts": "2026-09-08T07:43:57"
      }
    },
    {
      "type": "Feature",
      "geometry": {
        "type": "Polygon",
        "coordinates": [
          [
            [
              2.166697930449254,
              41.39341327720219
            ],
            [
              2.1665496404508517,
              41.39352114718502
            ],
            [
              2.1665766395535138,
              41.39354219404945
            ],
            [
              2.1667249295551128,
              41.39343432403222
            ],
            [
              2.166697930449254,
              41.39341327720219
            ]
          ]
        ]
      },
      "properties": {
        "kind": "driving",
        "name": "New section",
        "left": [
          [
            2.166697930449254,
            41.39341327720219
          ],
          [
            2.1665496404508517,
            41.39352114718502
          ]
        ],
        "right": [
          [
            2.1667249295551128,
            41.39343432403222
          ],
          [
            2.1665766395535138,
            41.39354219404945
          ]
        ],
        "provenance": {
          "basis": "drawn by reviewer"
        },
        "estimated": false,
        "id": "c12",
        "ts": "2026-09-08T07:46:01"
      }
    }
  ]
}